{"type":"FeatureCollection","features":[{"type":"Feature","geometry":{"type":"Polygon","coordinates":[[[16.614983,49.210438],[16.615,49.210417],[16.614964,49.210404],[16.614956,49.210414],[16.614678,49.210315],[16.614641,49.21036],[16.614674,49.210371],[16.614691,49.210351],[16.61474,49.210369],[16.61474,49.210369],[16.614746,49.210371],[16.614764,49.210377],[16.614782,49.210384],[16.614782,49.210384],[16.614972,49.210451],[16.614983,49.210438]]]},"properties":{"id":475899,"buildingId":465899,"floorId":475896,"floorLevel":1,"name":"","type":"floor","category":"structure","label":"Corridor","passportNumber":null,"seats":null,"hasProjector":false,"hasWhiteboard":false,"code":null}},{"type":"Feature","geometry":{"type":"Polygon","coordinates":[[[16.614744,49.21052],[16.61482,49.210547],[16.614832,49.210533],[16.614779,49.210514],[16.61478,49.210513],[16.614757,49.210505],[16.614744,49.21052]]]},"properties":{"id":476028,"buildingId":465899,"floorId":475896,"floorLevel":1,"name":"","type":"floor","category":"structure","label":"Corridor","passportNumber":null,"seats":null,"hasProjector":false,"hasWhiteboard":false,"code":null}},{"type":"Feature","geometry":{"type":"Polygon","coordinates":[[[16.614607,49.210467],[16.614738,49.210515],[16.614747,49.210503],[16.61464,49.210464],[16.614641,49.210463],[16.614617,49.210455],[16.614607,49.210467]]]},"properties":{"id":476029,"buildingId":465899,"floorId":475896,"floorLevel":1,"name":"","type":"floor","category":"structure","label":"Corridor","passportNumber":null,"seats":null,"hasProjector":false,"hasWhiteboard":false,"code":null}},{"type":"Feature","geometry":{"type":"Polygon","coordinates":[[[16.614869,49.210679],[16.614871,49.21068],[16.614871,49.210679],[16.614874,49.21068],[16.61488,49.210673],[16.614878,49.210672],[16.614878,49.210672],[16.614875,49.210671],[16.614878,49.210668],[16.614863,49.210663],[16.614845,49.210684],[16.614815,49.210673],[16.614833,49.210651],[16.614818,49.210645],[16.614792,49.210677],[16.614852,49.210699],[16.614869,49.210679]]]},"properties":{"id":480427,"buildingId":465899,"floorId":480376,"floorLevel":3,"name":"","type":"stairs","category":"circulation","label":"Stairs","passportNumber":null,"seats":null,"hasProjector":false,"hasWhiteboard":false,"code":null}},{"type":"Feature","geometry":{"type":"Polygon","coordinates":[[[16.614406,49.21062],[16.614382,49.210611],[16.614372,49.210623],[16.614396,49.210631],[16.614406,49.21062]]]},"properties":{"id":473287,"buildingId":465899,"floorId":473263,"floorLevel":-1,"name":"BA25P1023b","type":"english_backyard","category":"other","label":"english backyard","passportNumber":"BA25P1023b","seats":null,"hasProjector":false,"hasWhiteboard":false,"code":null}},{"type":"Feature","geometry":{"type":"Polygon","coordinates":[[[16.614917,49.210621],[16.614895,49.210612],[16.614888,49.210621],[16.614885,49.21062],[16.614892,49.210611],[16.614857,49.210599],[16.614835,49.210625],[16.614896,49.210646],[16.614917,49.210621]]]},"properties":{"id":473288,"buildingId":465899,"floorId":473263,"floorLevel":-1,"name":"BA25P1008","type":"storage","category":"service","label":"Storage","passportNumber":"BA25P1008","seats":null,"hasProjector":false,"hasWhiteboard":false,"code":null}},{"type":"Feature","geometry":{"type":"Polygon","coordinates":[[[16.61454,49.210349],[16.614535,49.210348],[16.614536,49.210346],[16.614541,49.210348],[16.614551,49.210336],[16.614535,49.21033],[16.614524,49.210342],[16.614527,49.210343],[16.614526,49.210345],[16.614523,49.210344],[16.614513,49.210356],[16.61453,49.210362],[16.61454,49.210349]]]},"properties":{"id":473264,"buildingId":465899,"floorId":473263,"floorLevel":-1,"name":"BA25P1019","type":"toilet","category":"service","label":"Toilet","passportNumber":"BA25P1019","seats":null,"hasProjector":false,"hasWhiteboard":false,"code":null}},{"type":"Feature","geometry":{"type":"Polygon","coordinates":[[[16.614534,49.210327],[16.614523,49.210323],[16.61452,49.210327],[16.614513,49.210324],[16.614516,49.210321],[16.614485,49.21031],[16.614452,49.21035],[16.614501,49.210367],[16.614534,49.210327]]]},"properties":{"id":473265,"buildingId":465899,"floorId":473263,"floorLevel":-1,"name":"BA25P1015","type":"storage","category":"service","label":"Storage","passportNumber":"BA25P1015","seats":null,"hasProjector":false,"hasWhiteboard":false,"code":null}},{"type":"Feature","geometry":{"type":"Polygon","coordinates":[[[16.614499,49.210369],[16.614451,49.210351],[16.61442,49.210388],[16.614469,49.210405],[16.614499,49.210369]]]},"properties":{"id":473266,"buildingId":465899,"floorId":473263,"floorLevel":-1,"name":"BA25P1016","type":"office","category":"office","label":"Office","passportNumber":"BA25P1016","seats":null,"hasProjector":false,"hasWhiteboard":false,"code":null}},{"type":"Feature","geometry":{"type":"Polygon","coordinates":[[[16.614468,49.210407],[16.614419,49.21039],[16.614387,49.210428],[16.614418,49.210439],[16.614419,49.210437],[16.614427,49.21044],[16.614425,49.210441],[16.614436,49.210445],[16.614468,49.210407]]]},"properties":{"id":473267,"buildingId":465899,"floorId":473263,"floorLevel":-1,"name":"BA25P1017","type":"office","category":"office","label":"Office","passportNumber":"BA25P1017","seats":null,"hasProjector":false,"hasWhiteboard":false,"code":null}},{"type":"Feature","geometry":{"type":"Polygon","coordinates":[[[16.614529,49.210363],[16.614512,49.210357],[16.614438,49.210447],[16.614455,49.210453],[16.614529,49.210363]]]},"properties":{"id":473268,"buildingId":465899,"floorId":473263,"floorLevel":-1,"name":"BA25P1018","type":"floor","category":"structure","label":"Corridor","passportNumber":"BA25P1018","seats":null,"hasProjector":false,"hasWhiteboard":false,"code":null}},{"type":"Feature","geometry":{"type":"Polygon","coordinates":[[[16.614351,49.210506],[16.614312,49.210492],[16.614311,49.210493],[16.614295,49.210487],[16.614282,49.210504],[16.614336,49.210523],[16.614351,49.210506]]]},"properties":{"id":473269,"buildingId":465899,"floorId":473263,"floorLevel":-1,"name":"BA25P1025","type":"substation","category":"other","label":"substation","passportNumber":"BA25P1025","seats":null,"hasProjector":false,"hasWhiteboard":false,"code":null}},{"type":"Feature","geometry":{"type":"Polygon","coordinates":[[[16.614775,49.210413],[16.614761,49.210408],[16.61476,49.210409],[16.614718,49.210394],[16.614719,49.210393],[16.61468,49.210379],[16.614677,49.210382],[16.61467,49.21038],[16.614673,49.210376],[16.614556,49.210335],[16.614457,49.210454],[16.614574,49.210495],[16.614576,49.210493],[16.614583,49.210495],[16.614581,49.210498],[16.614677,49.210532],[16.614775,49.210413]]]},"properties":{"id":473270,"buildingId":465899,"floorId":473263,"floorLevel":-1,"name":"BA25P1013","type":"substation","category":"other","label":"substation","passportNumber":"BA25P1013","seats":null,"hasProjector":false,"hasWhiteboard":false,"code":null}},{"type":"Feature","geometry":{"type":"Polygon","coordinates":[[[16.614389,49.210519],[16.614353,49.210507],[16.614339,49.210524],[16.614375,49.210537],[16.614389,49.210519]]]},"properties":{"id":473271,"buildingId":465899,"floorId":473263,"floorLevel":-1,"name":"BA25P1029","type":"engine_room","category":"service","label":"Engine room","passportNumber":"BA25P1029","seats":null,"hasProjector":false,"hasWhiteboard":false,"code":null}},{"type":"Feature","geometry":{"type":"Polygon","coordinates":[[[16.614373,49.210538],[16.614337,49.210526],[16.614323,49.210543],[16.614359,49.210556],[16.614373,49.210538]]]},"properties":{"id":473272,"buildingId":465899,"floorId":473263,"floorLevel":-1,"name":"BA25P1028","type":"engine_room","category":"service","label":"Engine room","passportNumber":"BA25P1028","seats":null,"hasProjector":false,"hasWhiteboard":false,"code":null}},{"type":"Feature","geometry":{"type":"Polygon","coordinates":[[[16.614335,49.210525],[16.614281,49.210505],[16.614251,49.210541],[16.614305,49.21056],[16.614335,49.210525]]]},"properties":{"id":473273,"buildingId":465899,"floorId":473263,"floorLevel":-1,"name":"BA25P1024","type":"substation","category":"other","label":"substation","passportNumber":"BA25P1024","seats":null,"hasProjector":false,"hasWhiteboard":false,"code":null}},{"type":"Feature","geometry":{"type":"Polygon","coordinates":[[[16.614704,49.210544],[16.614619,49.210514],[16.614616,49.210518],[16.614601,49.210512],[16.614588,49.210527],[16.61459,49.210528],[16.614584,49.210535],[16.614664,49.210563],[16.614664,49.210563],[16.61467,49.210565],[16.61467,49.210566],[16.614682,49.21057],[16.614704,49.210544]]]},"properties":{"id":473274,"buildingId":465899,"floorId":473263,"floorLevel":-1,"name":"BA25P1012","type":"storage","category":"service","label":"Storage","passportNumber":"BA25P1012","seats":null,"hasProjector":false,"hasWhiteboard":false,"code":null}},{"type":"Feature","geometry":{"type":"Polygon","coordinates":[[[16.614422,49.210531],[16.614421,49.210531],[16.614422,49.21053],[16.614393,49.210519],[16.614392,49.210521],[16.614392,49.21052],[16.614361,49.210557],[16.614392,49.210567],[16.614422,49.210531]]]},"properties":{"id":473275,"buildingId":465899,"floorId":473263,"floorLevel":-1,"name":"BA25P1026","type":"floor","category":"structure","label":"Corridor","passportNumber":"BA25P1026","seats":null,"hasProjector":false,"hasWhiteboard":false,"code":null}},{"type":"Feature","geometry":{"type":"Polygon","coordinates":[[[16.614304,49.210562],[16.61425,49.210542],[16.614238,49.210557],[16.614292,49.210576],[16.614304,49.210562]]]},"properties":{"id":473276,"buildingId":465899,"floorId":473263,"floorLevel":-1,"name":"BA25P1032","type":"substation","category":"other","label":"substation","passportNumber":"BA25P1032","seats":null,"hasProjector":false,"hasWhiteboard":false,"code":null}},{"type":"Feature","geometry":{"type":"Polygon","coordinates":[[[16.614743,49.210558],[16.614709,49.210546],[16.614707,49.210548],[16.614704,49.210547],[16.614685,49.210571],[16.614721,49.210584],[16.614743,49.210558]]]},"properties":{"id":473277,"buildingId":465899,"floorId":473263,"floorLevel":-1,"name":"BA25P1030","type":"substation","category":"other","label":"substation","passportNumber":"BA25P1030","seats":null,"hasProjector":false,"hasWhiteboard":false,"code":null}},{"type":"Feature","geometry":{"type":"Polygon","coordinates":[[[16.614614,49.210547],[16.614583,49.210536],[16.614554,49.210571],[16.614585,49.210583],[16.614614,49.210547]]]},"properties":{"id":473278,"buildingId":465899,"floorId":473263,"floorLevel":-1,"name":"BA25P1001","type":"engine_room","category":"service","label":"Engine room","passportNumber":"BA25P1001","seats":null,"hasProjector":false,"hasWhiteboard":false,"code":null}},{"type":"Feature","geometry":{"type":"Polygon","coordinates":[[[16.614853,49.210592],[16.614857,49.210593],[16.614951,49.21048],[16.614947,49.210479],[16.61495,49.210475],[16.614819,49.210428],[16.614816,49.210432],[16.614808,49.210429],[16.614811,49.210426],[16.614777,49.210414],[16.614679,49.210532],[16.614703,49.210541],[16.614705,49.210539],[16.614722,49.210545],[16.61472,49.210547],[16.614851,49.210594],[16.614853,49.210592]]]},"properties":{"id":473279,"buildingId":465899,"floorId":473263,"floorLevel":-1,"name":"BA25P1014","type":"classroom_and_laboratory","category":"teaching","label":"Classroom / lab","passportNumber":"BA25P1014","seats":null,"hasProjector":false,"hasWhiteboard":false,"code":null}},{"type":"Feature","geometry":{"type":"Polygon","coordinates":[[[16.61439,49.210569],[16.614322,49.210544],[16.614295,49.210577],[16.614363,49.210601],[16.61439,49.210569]]]},"properties":{"id":473280,"buildingId":465899,"floorId":473263,"floorLevel":-1,"name":"BA25P1027","type":"substation","category":"other","label":"substation","passportNumber":"BA25P1027","seats":null,"hasProjector":false,"hasWhiteboard":false,"code":null}},{"type":"Feature","geometry":{"type":"Polygon","coordinates":[[[16.614484,49.210553],[16.614469,49.210548],[16.61447,49.210547],[16.61444,49.210536],[16.614439,49.210537],[16.614424,49.210532],[16.614383,49.210581],[16.614443,49.210603],[16.614484,49.210553]]]},"properties":{"id":473281,"buildingId":465899,"floorId":473263,"floorLevel":-1,"name":"BA25P1023","type":"engine_room","category":"service","label":"Engine room","passportNumber":"BA25P1023","seats":null,"hasProjector":false,"hasWhiteboard":false,"code":null}},{"type":"Feature","geometry":{"type":"Polygon","coordinates":[[[16.614808,49.210582],[16.614744,49.210559],[16.614723,49.210585],[16.614746,49.210593],[16.614747,49.210592],[16.614753,49.210595],[16.614752,49.210595],[16.614787,49.210607],[16.614808,49.210582]]]},"properties":{"id":473282,"buildingId":465899,"floorId":473263,"floorLevel":-1,"name":"BA25P1011","type":"food_storage","category":"other","label":"food storage","passportNumber":"BA25P1011","seats":null,"hasProjector":false,"hasWhiteboard":false,"code":null}},{"type":"Feature","geometry":{"type":"Polygon","coordinates":[[[16.61472,49.210585],[16.614616,49.210548],[16.614587,49.210583],[16.614691,49.21062],[16.61472,49.210585]]]},"properties":{"id":473283,"buildingId":465899,"floorId":473263,"floorLevel":-1,"name":"BA25P1002","type":"engine_room","category":"service","label":"Engine room","passportNumber":"BA25P1002","seats":null,"hasProjector":false,"hasWhiteboard":false,"code":null}},{"type":"Feature","geometry":{"type":"Polygon","coordinates":[[[16.614443,49.210604],[16.614382,49.210582],[16.614366,49.210602],[16.614426,49.210624],[16.614443,49.210604]]]},"properties":{"id":473284,"buildingId":465899,"floorId":473263,"floorLevel":-1,"name":"BA25P1023a","type":"engine_room","category":"service","label":"Engine room","passportNumber":"BA25P1023a","seats":null,"hasProjector":false,"hasWhiteboard":false,"code":null}},{"type":"Feature","geometry":{"type":"Polygon","coordinates":[[[16.614757,49.210598],[16.614722,49.210586],[16.614693,49.210621],[16.614728,49.210633],[16.614757,49.210598]]]},"properties":{"id":473285,"buildingId":465899,"floorId":473263,"floorLevel":-1,"name":"BA25P1003","type":"storage","category":"service","label":"Storage","passportNumber":"BA25P1003","seats":null,"hasProjector":false,"hasWhiteboard":false,"code":null}},{"type":"Feature","geometry":{"type":"Polygon","coordinates":[[[16.614832,49.210625],[16.614832,49.210625],[16.614831,49.210625],[16.614833,49.210622],[16.61479,49.210606],[16.614787,49.210609],[16.614759,49.210599],[16.614751,49.210609],[16.614824,49.210635],[16.614832,49.210625]]]},"properties":{"id":473286,"buildingId":465899,"floorId":473263,"floorLevel":-1,"name":"BA25P1006","type":"floor","category":"structure","label":"Corridor","passportNumber":"BA25P1006","seats":null,"hasProjector":false,"hasWhiteboard":false,"code":null}},{"type":"Feature","geometry":{"type":"Polygon","coordinates":[[[16.61478,49.210621],[16.61475,49.21061],[16.61473,49.210634],[16.61476,49.210645],[16.61478,49.210621]]]},"properties":{"id":473289,"buildingId":465899,"floorId":473263,"floorLevel":-1,"name":"BA25P1004","type":"food_storage","category":"other","label":"food storage","passportNumber":"BA25P1004","seats":null,"hasProjector":false,"hasWhiteboard":false,"code":null}},{"type":"Feature","geometry":{"type":"Polygon","coordinates":[[[16.614562,49.210581],[16.614487,49.210554],[16.614429,49.210625],[16.614503,49.210651],[16.614562,49.210581]]]},"properties":{"id":473290,"buildingId":465899,"floorId":473263,"floorLevel":-1,"name":"BA25P1021","type":"engine_room","category":"service","label":"Engine room","passportNumber":"BA25P1021","seats":null,"hasProjector":false,"hasWhiteboard":false,"code":null}},{"type":"Feature","geometry":{"type":"Polygon","coordinates":[[[16.614469,49.210642],[16.614445,49.210633],[16.614435,49.210645],[16.614459,49.210654],[16.614469,49.210642]]]},"properties":{"id":473291,"buildingId":465899,"floorId":473263,"floorLevel":-1,"name":"BA25P1021a","type":"english_backyard","category":"other","label":"english backyard","passportNumber":"BA25P1021a","seats":null,"hasProjector":false,"hasWhiteboard":false,"code":null}},{"type":"Feature","geometry":{"type":"Polygon","coordinates":[[[16.614823,49.210636],[16.614782,49.210622],[16.614762,49.210646],[16.614803,49.21066],[16.614823,49.210636]]]},"properties":{"id":473292,"buildingId":465899,"floorId":473263,"floorLevel":-1,"name":"BA25P1005","type":"storage","category":"service","label":"Storage","passportNumber":"BA25P1005","seats":null,"hasProjector":false,"hasWhiteboard":false,"code":null}},{"type":"Feature","geometry":{"type":"Polygon","coordinates":[[[16.614895,49.210647],[16.614834,49.210626],[16.614815,49.210649],[16.61483,49.210655],[16.614833,49.210651],[16.614839,49.210653],[16.614841,49.210653],[16.61484,49.210654],[16.614856,49.21066],[16.614856,49.210659],[16.614879,49.210667],[16.614895,49.210647]]]},"properties":{"id":473293,"buildingId":465899,"floorId":473263,"floorLevel":-1,"name":"BA25P1007","type":"stairs","category":"circulation","label":"Stairs","passportNumber":"BA25P1007","seats":null,"hasProjector":false,"hasWhiteboard":false,"code":null}},{"type":"Feature","geometry":{"type":"Polygon","coordinates":[[[16.61486,49.210662],[16.614834,49.210653],[16.614819,49.210672],[16.614844,49.210681],[16.61486,49.210662]]]},"properties":{"id":473294,"buildingId":465899,"floorId":473263,"floorLevel":-1,"name":"BA25P1020","type":"elevator","category":"circulation","label":"Elevator","passportNumber":"BA25P1020","seats":null,"hasProjector":false,"hasWhiteboard":false,"code":null}},{"type":"Feature","geometry":{"type":"Polygon","coordinates":[[[16.614878,49.210668],[16.614863,49.210663],[16.614845,49.210684],[16.614815,49.210673],[16.61483,49.210655],[16.614815,49.210649],[16.614792,49.210677],[16.614852,49.210699],[16.614878,49.210668]]]},"properties":{"id":473295,"buildingId":465899,"floorId":473263,"floorLevel":-1,"name":"BA25P1031","type":"stairs","category":"circulation","label":"Stairs","passportNumber":"BA25P1031","seats":null,"hasProjector":false,"hasWhiteboard":false,"code":null}},{"type":"Feature","geometry":{"type":"Polygon","coordinates":[[[16.614739,49.21037],[16.614692,49.210353],[16.614675,49.210374],[16.614722,49.210391],[16.614739,49.21037]]]},"properties":{"id":475897,"buildingId":465899,"floorId":475896,"floorLevel":1,"name":"BA25N1005","type":"floor","category":"structure","label":"Corridor","passportNumber":"BA25N1005","seats":null,"hasProjector":false,"hasWhiteboard":false,"code":null}},{"type":"Feature","geometry":{"type":"Polygon","coordinates":[[[16.614764,49.210381],[16.61474,49.210373],[16.614723,49.210394],[16.614747,49.210402],[16.614764,49.210381]]]},"properties":{"id":475898,"buildingId":465899,"floorId":475896,"floorLevel":1,"name":"BA25N1013","type":"elevator","category":"circulation","label":"Elevator","passportNumber":"BA25N1013","seats":null,"hasProjector":false,"hasWhiteboard":false,"code":null}},{"type":"Feature","geometry":{"type":"Polygon","coordinates":[[[16.614533,49.210324],[16.614471,49.210302],[16.61446,49.210307],[16.61445,49.210313],[16.614439,49.210319],[16.61443,49.210326],[16.61442,49.210334],[16.614412,49.210342],[16.614403,49.210351],[16.614399,49.210356],[16.614395,49.210361],[16.614392,49.210367],[16.614389,49.210373],[16.614386,49.210379],[16.614383,49.210385],[16.614381,49.210391],[16.61438,49.210397],[16.614378,49.210404],[16.614378,49.210408],[16.614377,49.210411],[16.614377,49.210415],[16.614377,49.210419],[16.614377,49.210423],[16.614377,49.210426],[16.614378,49.21043],[16.614429,49.210449],[16.614533,49.210324]]]},"properties":{"id":475900,"buildingId":465899,"floorId":475896,"floorLevel":1,"name":"BA25N1015","type":"balcony","category":"other","label":"balcony","passportNumber":"BA25N1015","seats":null,"hasProjector":false,"hasWhiteboard":false,"code":null}},{"type":"Feature","geometry":{"type":"Polygon","coordinates":[[[16.614982,49.210465],[16.614989,49.210467],[16.614996,49.210459],[16.614994,49.210457],[16.614992,49.210455],[16.614991,49.210453],[16.614989,49.210451],[16.614988,49.210449],[16.614986,49.210447],[16.614984,49.210445],[16.614971,49.210461],[16.61497,49.21046],[16.614964,49.210467],[16.614966,49.210468],[16.614976,49.210472],[16.614982,49.210465]]]},"properties":{"id":475901,"buildingId":465899,"floorId":475896,"floorLevel":1,"name":"BA25N1011","type":"utility_room","category":"service","label":"Utility","passportNumber":"BA25N1011","seats":null,"hasProjector":false,"hasWhiteboard":false,"code":null}},{"type":"Feature","geometry":{"type":"Polygon","coordinates":[[[16.615004,49.210474],[16.615002,49.210476],[16.614998,49.210481],[16.615008,49.210484],[16.615008,49.210483],[16.615007,49.210481],[16.615006,49.21048],[16.615006,49.210478],[16.615005,49.210477],[16.615004,49.210475],[16.615004,49.210474]]]},"properties":{"id":475902,"buildingId":465899,"floorId":475896,"floorLevel":1,"name":"BA25N1019","type":"shaft","category":"service","label":"Shaft","passportNumber":"BA25N1019","seats":null,"hasProjector":false,"hasWhiteboard":false,"code":null}},{"type":"Feature","geometry":{"type":"Polygon","coordinates":[[[16.614959,49.210497],[16.614946,49.210492],[16.614938,49.210501],[16.614952,49.210506],[16.614959,49.210497]]]},"properties":{"id":475903,"buildingId":465899,"floorId":475896,"floorLevel":1,"name":"BA25N1020","type":"shaft","category":"service","label":"Shaft","passportNumber":"BA25N1020","seats":null,"hasProjector":false,"hasWhiteboard":false,"code":null}},{"type":"Feature","geometry":{"type":"Polygon","coordinates":[[[16.615008,49.210486],[16.614996,49.210481],[16.615002,49.210473],[16.614984,49.210467],[16.614978,49.210474],[16.614987,49.210477],[16.614986,49.210478],[16.614966,49.21047],[16.61496,49.210478],[16.614992,49.210489],[16.614991,49.210491],[16.61499,49.21049],[16.614991,49.21049],[16.614957,49.210478],[16.614954,49.210482],[16.614952,49.210481],[16.614946,49.210488],[16.614948,49.210489],[16.614946,49.210491],[16.614961,49.210496],[16.614958,49.210501],[16.614976,49.210507],[16.614979,49.210504],[16.615011,49.210515],[16.615011,49.210511],[16.615011,49.210507],[16.615011,49.210502],[16.615011,49.210498],[16.61501,49.210494],[16.615009,49.21049],[16.615008,49.210486]]]},"properties":{"id":475904,"buildingId":465899,"floorId":475896,"floorLevel":1,"name":"BA25N1010","type":"toilet","category":"service","label":"Toilet","passportNumber":"BA25N1010","seats":null,"hasProjector":false,"hasWhiteboard":false,"code":null}},{"type":"Feature","geometry":{"type":"Polygon","coordinates":[[[16.61501,49.210519],[16.614978,49.210507],[16.614975,49.21051],[16.614956,49.210503],[16.614953,49.210507],[16.614938,49.210501],[16.614926,49.210516],[16.614992,49.21054],[16.61501,49.210519]]]},"properties":{"id":475905,"buildingId":465899,"floorId":475896,"floorLevel":1,"name":"BA25N1009","type":"toilet","category":"service","label":"Toilet","passportNumber":"BA25N1009","seats":null,"hasProjector":false,"hasWhiteboard":false,"code":null}},{"type":"Feature","geometry":{"type":"Polygon","coordinates":[[[16.614951,49.21048],[16.61495,49.21048],[16.61495,49.210479],[16.614949,49.210479],[16.614949,49.210478],[16.614949,49.210478],[16.614949,49.210477],[16.614949,49.210477],[16.614949,49.210476],[16.61495,49.210476],[16.61495,49.210476],[16.614951,49.210475],[16.614952,49.210475],[16.614952,49.210475],[16.614953,49.210475],[16.614954,49.210475],[16.614955,49.210475],[16.614973,49.210454],[16.61478,49.210385],[16.61476,49.210409],[16.614719,49.210394],[16.614722,49.210391],[16.614675,49.210374],[16.614605,49.210349],[16.614541,49.210427],[16.614878,49.210547],[16.614881,49.210544],[16.614894,49.210549],[16.614951,49.21048]]]},"properties":{"id":475906,"buildingId":465899,"floorId":475896,"floorLevel":1,"name":"BA25N1004","type":"classroom_and_laboratory","category":"teaching","label":"Classroom / lab","passportNumber":"BA25N1004","seats":null,"hasProjector":false,"hasWhiteboard":false,"code":null}},{"type":"Feature","geometry":{"type":"Polygon","coordinates":[[[16.614747,49.210503],[16.61464,49.210464],[16.614641,49.210463],[16.614617,49.210455],[16.614607,49.210467],[16.614738,49.210515],[16.614747,49.210503]]]},"properties":{"id":475907,"buildingId":465899,"floorId":475896,"floorLevel":1,"name":"BA25N1002D","type":"floor","category":"structure","label":"Corridor","passportNumber":"BA25N1002D","seats":null,"hasProjector":false,"hasWhiteboard":false,"code":null}},{"type":"Feature","geometry":{"type":"Polygon","coordinates":[[[16.61498,49.210573],[16.614987,49.210566],[16.614989,49.210564],[16.614991,49.210561],[16.614993,49.210558],[16.614995,49.210556],[16.614997,49.210553],[16.614999,49.21055],[16.615001,49.210547],[16.614925,49.21052],[16.614882,49.210573],[16.614948,49.210596],[16.614953,49.210593],[16.614957,49.21059],[16.614962,49.210587],[16.614967,49.210584],[16.614971,49.210581],[16.614975,49.210577],[16.61498,49.210573]]]},"properties":{"id":475908,"buildingId":465899,"floorId":475896,"floorLevel":1,"name":"BA25N1008","type":"garbage","category":"other","label":"garbage","passportNumber":"BA25N1008","seats":null,"hasProjector":false,"hasWhiteboard":false,"code":null}},{"type":"Feature","geometry":{"type":"Polygon","coordinates":[[[16.614864,49.210621],[16.614867,49.21062],[16.61487,49.21062],[16.614874,49.21062],[16.614877,49.210619],[16.61488,49.210619],[16.614884,49.210618],[16.614887,49.210617],[16.614894,49.210609],[16.614897,49.21061],[16.614891,49.210616],[16.614899,49.210615],[16.614907,49.210613],[16.614914,49.21061],[16.614921,49.210608],[16.614929,49.210605],[16.614936,49.210602],[16.614943,49.210598],[16.614877,49.210575],[16.614849,49.210609],[16.614861,49.210613],[16.614853,49.210622],[16.614855,49.210622],[16.614856,49.210622],[16.614858,49.210621],[16.614859,49.210621],[16.614861,49.210621],[16.614862,49.210621],[16.614864,49.210621]]]},"properties":{"id":475909,"buildingId":465899,"floorId":475896,"floorLevel":1,"name":"BA25N1007","type":"utility_room","category":"service","label":"Utility","passportNumber":"BA25N1007","seats":null,"hasProjector":false,"hasWhiteboard":false,"code":null}},{"type":"Feature","geometry":{"type":"Polygon","coordinates":[[[16.614832,49.210533],[16.614779,49.210514],[16.61478,49.210513],[16.614757,49.210505],[16.614744,49.21052],[16.61482,49.210547],[16.614832,49.210533]]]},"properties":{"id":475910,"buildingId":465899,"floorId":475896,"floorLevel":1,"name":"BA25N1003C","type":"floor","category":"structure","label":"Corridor","passportNumber":"BA25N1003C","seats":null,"hasProjector":false,"hasWhiteboard":false,"code":null}},{"type":"Feature","geometry":{"type":"Polygon","coordinates":[[[16.614859,49.210613],[16.614848,49.21061],[16.614832,49.210629],[16.614842,49.210633],[16.614859,49.210613]]]},"properties":{"id":475911,"buildingId":465899,"floorId":475896,"floorLevel":1,"name":"BA25N1018","type":"shaft","category":"service","label":"Shaft","passportNumber":"BA25N1018","seats":null,"hasProjector":false,"hasWhiteboard":false,"code":null}},{"type":"Feature","geometry":{"type":"Polygon","coordinates":[[[16.614891,49.210648],[16.614898,49.210651],[16.614913,49.210648],[16.614903,49.21063],[16.6149,49.21063],[16.614896,49.210631],[16.614893,49.210632],[16.61489,49.210632],[16.614887,49.210633],[16.614884,49.210633],[16.614881,49.210634],[16.614877,49.210623],[16.614874,49.210623],[16.614871,49.210624],[16.614868,49.210624],[16.614865,49.210624],[16.614861,49.210625],[16.614858,49.210625],[16.614855,49.210625],[16.614846,49.210636],[16.614846,49.210636],[16.614888,49.210652],[16.614891,49.210648]]]},"properties":{"id":475912,"buildingId":465899,"floorId":475896,"floorLevel":1,"name":"BA25N1014","type":"ramp","category":"other","label":"ramp","passportNumber":"BA25N1014","seats":null,"hasProjector":false,"hasWhiteboard":false,"code":null}},{"type":"Feature","geometry":{"type":"Polygon","coordinates":[[[16.61486,49.210662],[16.614834,49.210653],[16.614819,49.210672],[16.614844,49.210681],[16.61486,49.210662]]]},"properties":{"id":475913,"buildingId":465899,"floorId":475896,"floorLevel":1,"name":"BA25N1012","type":"elevator","category":"circulation","label":"Elevator","passportNumber":"BA25N1012","seats":null,"hasProjector":false,"hasWhiteboard":false,"code":null}},{"type":"Feature","geometry":{"type":"Polygon","coordinates":[[[16.614891,49.210653],[16.61483,49.210631],[16.614792,49.210677],[16.614852,49.210699],[16.614891,49.210653]]]},"properties":{"id":475914,"buildingId":465899,"floorId":475896,"floorLevel":1,"name":"BA25N1006","type":"stairs","category":"circulation","label":"Stairs","passportNumber":"BA25N1006","seats":null,"hasProjector":false,"hasWhiteboard":false,"code":null}},{"type":"Feature","geometry":{"type":"Polygon","coordinates":[[[16.614776,49.210386],[16.614767,49.210382],[16.614749,49.210403],[16.614759,49.210407],[16.614776,49.210386]]]},"properties":{"id":475945,"buildingId":465899,"floorId":475896,"floorLevel":1,"name":"BA25N1017","type":"shaft","category":"service","label":"Shaft","passportNumber":"BA25N1017","seats":null,"hasProjector":false,"hasWhiteboard":false,"code":null}},{"type":"Feature","geometry":{"type":"Polygon","coordinates":[[[16.614507,49.210358],[16.614577,49.210383],[16.614605,49.210349],[16.614535,49.210324],[16.614507,49.210358]]]},"properties":{"id":476008,"buildingId":465899,"floorId":475896,"floorLevel":1,"name":"BA25N1004B","type":"office","category":"office","label":"Office","passportNumber":"BA25N1004B","seats":null,"hasProjector":false,"hasWhiteboard":false,"code":null}},{"type":"Feature","geometry":{"type":"Polygon","coordinates":[[[16.614577,49.210383],[16.614507,49.210358],[16.614471,49.210402],[16.614541,49.210427],[16.614577,49.210383]]]},"properties":{"id":476011,"buildingId":465899,"floorId":475896,"floorLevel":1,"name":"BA25N1004A","type":"office","category":"office","label":"Office","passportNumber":"BA25N1004A","seats":null,"hasProjector":false,"hasWhiteboard":false,"code":null}},{"type":"Feature","geometry":{"type":"Polygon","coordinates":[[[16.614598,49.210467],[16.614543,49.210448],[16.614497,49.210506],[16.61455,49.210524],[16.614598,49.210467]]]},"properties":{"id":476012,"buildingId":465899,"floorId":475896,"floorLevel":1,"name":"BA25N1001D","type":"office","category":"office","label":"Office","passportNumber":"BA25N1001D","seats":null,"hasProjector":false,"hasWhiteboard":false,"code":null}},{"type":"Feature","geometry":{"type":"Polygon","coordinates":[[[16.614497,49.210506],[16.614522,49.210474],[16.614442,49.210446],[16.614416,49.210477],[16.614497,49.210506]]]},"properties":{"id":476013,"buildingId":465899,"floorId":475896,"floorLevel":1,"name":"BA25N1001A","type":"office","category":"office","label":"Office","passportNumber":"BA25N1001A","seats":null,"hasProjector":false,"hasWhiteboard":false,"code":null}},{"type":"Feature","geometry":{"type":"Polygon","coordinates":[[[16.614508,49.210469],[16.614527,49.210446],[16.614461,49.210423],[16.614442,49.210446],[16.614508,49.210469]]]},"properties":{"id":476014,"buildingId":465899,"floorId":475896,"floorLevel":1,"name":"BA25N1001B","type":"office","category":"office","label":"Office","passportNumber":"BA25N1001B","seats":null,"hasProjector":false,"hasWhiteboard":false,"code":null}},{"type":"Feature","geometry":{"type":"Polygon","coordinates":[[[16.614527,49.210446],[16.61454,49.210429],[16.614475,49.210406],[16.614461,49.210423],[16.614527,49.210446]]]},"properties":{"id":476015,"buildingId":465899,"floorId":475896,"floorLevel":1,"name":"BA25N1001C","type":"office","category":"office","label":"Office","passportNumber":"BA25N1001C","seats":null,"hasProjector":false,"hasWhiteboard":false,"code":null}},{"type":"Feature","geometry":{"type":"Polygon","coordinates":[[[16.614691,49.210498],[16.614642,49.210557],[16.614689,49.210574],[16.614738,49.210515],[16.614691,49.210498]]]},"properties":{"id":476020,"buildingId":465899,"floorId":475896,"floorLevel":1,"name":"BA25N1002C","type":"office","category":"office","label":"Office","passportNumber":"BA25N1002C","seats":null,"hasProjector":false,"hasWhiteboard":false,"code":null}},{"type":"Feature","geometry":{"type":"Polygon","coordinates":[[[16.614652,49.210483],[16.614607,49.210467],[16.614558,49.210527],[16.614603,49.210543],[16.614652,49.210483]]]},"properties":{"id":476021,"buildingId":465899,"floorId":475896,"floorLevel":1,"name":"BA25N1002A","type":"office","category":"office","label":"Office","passportNumber":"BA25N1002A","seats":null,"hasProjector":false,"hasWhiteboard":false,"code":null}},{"type":"Feature","geometry":{"type":"Polygon","coordinates":[[[16.614691,49.210498],[16.614652,49.210483],[16.614603,49.210543],[16.614642,49.210557],[16.614691,49.210498]]]},"properties":{"id":476022,"buildingId":465899,"floorId":475896,"floorLevel":1,"name":"BA25N1002B","type":"office","category":"office","label":"Office","passportNumber":"BA25N1002B","seats":null,"hasProjector":false,"hasWhiteboard":false,"code":null}},{"type":"Feature","geometry":{"type":"Polygon","coordinates":[[[16.614832,49.210533],[16.614774,49.210604],[16.614827,49.210623],[16.614886,49.210552],[16.614832,49.210533]]]},"properties":{"id":476026,"buildingId":465899,"floorId":475896,"floorLevel":1,"name":"BA25N1003B","type":"office","category":"office","label":"Office","passportNumber":"BA25N1003B","seats":null,"hasProjector":false,"hasWhiteboard":false,"code":null}},{"type":"Feature","geometry":{"type":"Polygon","coordinates":[[[16.61482,49.210547],[16.614744,49.21052],[16.614697,49.210577],[16.614774,49.210604],[16.61482,49.210547]]]},"properties":{"id":476027,"buildingId":465899,"floorId":475896,"floorLevel":1,"name":"BA25N1003A","type":"office","category":"office","label":"Office","passportNumber":"BA25N1003A","seats":null,"hasProjector":false,"hasWhiteboard":false,"code":null}},{"type":"Feature","geometry":{"type":"Polygon","coordinates":[[[16.614598,49.210467],[16.61461,49.210452],[16.614587,49.210444],[16.614586,49.210445],[16.61454,49.210429],[16.614508,49.210469],[16.614522,49.210474],[16.614543,49.210448],[16.614598,49.210467]]]},"properties":{"id":476030,"buildingId":465899,"floorId":475896,"floorLevel":1,"name":"BA25N1001","type":"floor","category":"structure","label":"Corridor","passportNumber":"BA25N1001","seats":null,"hasProjector":false,"hasWhiteboard":false,"code":null}},{"type":"Feature","geometry":{"type":"Polygon","coordinates":[[[16.614762,49.210345],[16.614595,49.210285],[16.614561,49.210326],[16.614644,49.210356],[16.61466,49.210337],[16.614604,49.210317],[16.614607,49.210314],[16.614695,49.210346],[16.614691,49.210351],[16.614706,49.210356],[16.614706,49.210356],[16.614726,49.210363],[16.614726,49.210364],[16.614738,49.210368],[16.614739,49.210368],[16.614739,49.210368],[16.61474,49.210369],[16.614742,49.210369],[16.614762,49.210345]]]},"properties":{"id":479935,"buildingId":465899,"floorId":479934,"floorLevel":2,"name":"BA25N2030","type":"stairs","category":"circulation","label":"Stairs","passportNumber":"BA25N2030","seats":null,"hasProjector":false,"hasWhiteboard":false,"code":null}},{"type":"Feature","geometry":{"type":"Polygon","coordinates":[[[16.614737,49.21037],[16.614692,49.210353],[16.614675,49.210373],[16.614721,49.210389],[16.614737,49.21037]]]},"properties":{"id":479936,"buildingId":465899,"floorId":479934,"floorLevel":2,"name":"BA25N2028","type":"floor","category":"structure","label":"Corridor","passportNumber":"BA25N2028","seats":null,"hasProjector":false,"hasWhiteboard":false,"code":null}},{"type":"Feature","geometry":{"type":"Polygon","coordinates":[[[16.614828,49.210387],[16.614809,49.21038],[16.614796,49.210395],[16.614806,49.210399],[16.614807,49.210398],[16.614816,49.210401],[16.614828,49.210387]]]},"properties":{"id":479937,"buildingId":465899,"floorId":479934,"floorLevel":2,"name":"BA25N2029","type":"toilet","category":"service","label":"Toilet","passportNumber":"BA25N2029","seats":null,"hasProjector":false,"hasWhiteboard":false,"code":null}},{"type":"Feature","geometry":{"type":"Polygon","coordinates":[[[16.614764,49.210381],[16.61474,49.210373],[16.614723,49.210394],[16.614747,49.210402],[16.614764,49.210381]]]},"properties":{"id":479938,"buildingId":465899,"floorId":479934,"floorLevel":2,"name":"BA25N2027","type":"elevator","category":"circulation","label":"Elevator","passportNumber":"BA25N2027","seats":null,"hasProjector":false,"hasWhiteboard":false,"code":null}},{"type":"Feature","geometry":{"type":"Polygon","coordinates":[[[16.614776,49.210386],[16.614767,49.210382],[16.614749,49.210403],[16.614759,49.210407],[16.614776,49.210386]]]},"properties":{"id":479939,"buildingId":465899,"floorId":479934,"floorLevel":2,"name":"BA25N2031","type":"shaft","category":"service","label":"Shaft","passportNumber":"BA25N2031","seats":null,"hasProjector":false,"hasWhiteboard":false,"code":null}},{"type":"Feature","geometry":{"type":"Polygon","coordinates":[[[16.614814,49.210403],[16.614795,49.210396],[16.614789,49.210403],[16.614808,49.21041],[16.614814,49.210403]]]},"properties":{"id":479940,"buildingId":465899,"floorId":479934,"floorLevel":2,"name":"BA25N2035","type":"substation","category":"other","label":"substation","passportNumber":"BA25N2035","seats":null,"hasProjector":false,"hasWhiteboard":false,"code":null}},{"type":"Feature","geometry":{"type":"Polygon","coordinates":[[[16.614807,49.210378],[16.614909,49.210415],[16.614918,49.210404],[16.614901,49.210398],[16.614884,49.210392],[16.614872,49.210388],[16.614858,49.210382],[16.614849,49.210379],[16.614839,49.210374],[16.614829,49.21037],[16.61482,49.210366],[16.614813,49.210363],[16.614807,49.210361],[16.614802,49.210358],[16.61476,49.210409],[16.614777,49.210415],[16.614807,49.210378]]]},"properties":{"id":479941,"buildingId":465899,"floorId":479934,"floorLevel":2,"name":"BA25N2025","type":"floor","category":"structure","label":"Corridor","passportNumber":"BA25N2025","seats":null,"hasProjector":false,"hasWhiteboard":false,"code":null}},{"type":"Feature","geometry":{"type":"Polygon","coordinates":[[[16.614898,49.210412],[16.614878,49.210405],[16.614867,49.210419],[16.614876,49.210422],[16.614877,49.210421],[16.614887,49.210425],[16.614898,49.210412]]]},"properties":{"id":479942,"buildingId":465899,"floorId":479934,"floorLevel":2,"name":"BA25N2023","type":"toilet","category":"service","label":"Toilet","passportNumber":"BA25N2023","seats":null,"hasProjector":false,"hasWhiteboard":false,"code":null}},{"type":"Feature","geometry":{"type":"Polygon","coordinates":[[[16.614947,49.210421],[16.614948,49.21042],[16.614949,49.210419],[16.614947,49.210418],[16.614944,49.210416],[16.614939,49.210414],[16.614935,49.210412],[16.614933,49.210411],[16.614925,49.21042],[16.614943,49.210427],[16.614947,49.210421]]]},"properties":{"id":479943,"buildingId":465899,"floorId":479934,"floorLevel":2,"name":"BA25N2021","type":"utility_room","category":"service","label":"Utility","passportNumber":"BA25N2021","seats":null,"hasProjector":false,"hasWhiteboard":false,"code":null}},{"type":"Feature","geometry":{"type":"Polygon","coordinates":[[[16.614871,49.210423],[16.614852,49.210416],[16.614852,49.210415],[16.614863,49.210419],[16.614876,49.210404],[16.614851,49.210395],[16.614845,49.210402],[16.614844,49.210402],[16.614849,49.210395],[16.61483,49.210388],[16.614818,49.210403],[16.614837,49.21041],[16.614836,49.210411],[16.614817,49.210404],[16.614811,49.210411],[16.614865,49.21043],[16.614871,49.210423]]]},"properties":{"id":479944,"buildingId":465899,"floorId":479934,"floorLevel":2,"name":"BA25N2024","type":"toilet","category":"service","label":"Toilet","passportNumber":"BA25N2024","seats":null,"hasProjector":false,"hasWhiteboard":false,"code":null}},{"type":"Feature","geometry":{"type":"Polygon","coordinates":[[[16.614841,49.210423],[16.614788,49.210404],[16.614778,49.210416],[16.61481,49.210428],[16.61481,49.210427],[16.614811,49.210427],[16.614811,49.210426],[16.614812,49.210426],[16.614813,49.210426],[16.614813,49.210426],[16.614814,49.210426],[16.614815,49.210426],[16.614816,49.210426],[16.614817,49.210426],[16.614817,49.210426],[16.614818,49.210427],[16.614818,49.210428],[16.614818,49.210428],[16.614818,49.210429],[16.614832,49.210434],[16.614841,49.210423]]]},"properties":{"id":479945,"buildingId":465899,"floorId":479934,"floorLevel":2,"name":"BA25N2020","type":"food_storage","category":"other","label":"food storage","passportNumber":"BA25N2020","seats":null,"hasProjector":false,"hasWhiteboard":false,"code":null}},{"type":"Feature","geometry":{"type":"Polygon","coordinates":[[[16.61488,49.210436],[16.614868,49.210431],[16.614867,49.210433],[16.614843,49.210424],[16.614834,49.210435],[16.614871,49.210448],[16.61488,49.210436]]]},"properties":{"id":479946,"buildingId":465899,"floorId":479934,"floorLevel":2,"name":"BA25N2019","type":"storage","category":"service","label":"Storage","passportNumber":"BA25N2019","seats":null,"hasProjector":false,"hasWhiteboard":false,"code":null}},{"type":"Feature","geometry":{"type":"Polygon","coordinates":[[[16.614942,49.210427],[16.614923,49.210421],[16.614932,49.21041],[16.614929,49.210409],[16.614924,49.210407],[16.614919,49.210405],[16.61491,49.210416],[16.6149,49.210413],[16.614888,49.210427],[16.614897,49.21043],[16.614896,49.210431],[16.614877,49.210424],[16.614871,49.210431],[16.614924,49.21045],[16.614942,49.210427]]]},"properties":{"id":479947,"buildingId":465899,"floorId":479934,"floorLevel":2,"name":"BA25N2022","type":"toilet","category":"service","label":"Toilet","passportNumber":"BA25N2022","seats":null,"hasProjector":false,"hasWhiteboard":false,"code":null}},{"type":"Feature","geometry":{"type":"Polygon","coordinates":[[[16.614912,49.210447],[16.614894,49.210441],[16.614889,49.210447],[16.614888,49.210446],[16.614892,49.210441],[16.614881,49.210438],[16.614871,49.210449],[16.614882,49.210453],[16.614883,49.210452],[16.614884,49.210453],[16.614884,49.210454],[16.614902,49.21046],[16.614912,49.210447]]]},"properties":{"id":479948,"buildingId":465899,"floorId":479934,"floorLevel":2,"name":"BA25N2018","type":"toilet","category":"service","label":"Toilet","passportNumber":"BA25N2018","seats":null,"hasProjector":false,"hasWhiteboard":false,"code":null}},{"type":"Feature","geometry":{"type":"Polygon","coordinates":[[[16.614924,49.210451],[16.614914,49.210448],[16.614903,49.21046],[16.614914,49.210464],[16.614924,49.210451]]]},"properties":{"id":479949,"buildingId":465899,"floorId":479934,"floorLevel":2,"name":"BA25N2017","type":"utility_room","category":"service","label":"Utility","passportNumber":"BA25N2017","seats":null,"hasProjector":false,"hasWhiteboard":false,"code":null}},{"type":"Feature","geometry":{"type":"Polygon","coordinates":[[[16.614949,49.210477],[16.614949,49.210476],[16.614949,49.210476],[16.61495,49.210476],[16.614951,49.210475],[16.614952,49.210475],[16.614953,49.210475],[16.614954,49.210475],[16.614981,49.210442],[16.614976,49.210437],[16.614971,49.210433],[16.614967,49.21043],[16.614962,49.210427],[16.614956,49.210423],[16.614952,49.210421],[16.614927,49.210451],[16.614915,49.210465],[16.614949,49.210477]]]},"properties":{"id":479950,"buildingId":465899,"floorId":479934,"floorLevel":2,"name":"BA25N2016","type":"storage","category":"service","label":"Storage","passportNumber":"BA25N2016","seats":null,"hasProjector":false,"hasWhiteboard":false,"code":null}},{"type":"Feature","geometry":{"type":"Polygon","coordinates":[[[16.615004,49.210474],[16.614998,49.210481],[16.615008,49.210484],[16.615008,49.210483],[16.615007,49.210481],[16.615006,49.21048],[16.615006,49.210478],[16.615005,49.210477],[16.615004,49.210475],[16.615004,49.210474]]]},"properties":{"id":479951,"buildingId":465899,"floorId":479934,"floorLevel":2,"name":"BA25N2034","type":"shaft","category":"service","label":"Shaft","passportNumber":"BA25N2034","seats":null,"hasProjector":false,"hasWhiteboard":false,"code":null}},{"type":"Feature","geometry":{"type":"Polygon","coordinates":[[[16.61501,49.210491],[16.615008,49.210486],[16.614996,49.210481],[16.615003,49.210472],[16.615,49.210466],[16.614996,49.21046],[16.614992,49.210455],[16.614989,49.21045],[16.614982,49.210444],[16.614956,49.210476],[16.614956,49.210476],[16.614957,49.210477],[16.614957,49.210478],[16.614956,49.210479],[16.614956,49.210479],[16.615011,49.210499],[16.61501,49.210491]]]},"properties":{"id":479952,"buildingId":465899,"floorId":479934,"floorLevel":2,"name":"BA25N2015","type":"kitchen","category":"service","label":"Kitchen","passportNumber":"BA25N2015","seats":null,"hasProjector":false,"hasWhiteboard":false,"code":null}},{"type":"Feature","geometry":{"type":"Polygon","coordinates":[[[16.614958,49.210497],[16.61495,49.210494],[16.614943,49.210503],[16.614951,49.210506],[16.614958,49.210497]]]},"properties":{"id":479953,"buildingId":465899,"floorId":479934,"floorLevel":2,"name":"BA25N2033","type":"shaft","category":"service","label":"Shaft","passportNumber":"BA25N2033","seats":null,"hasProjector":false,"hasWhiteboard":false,"code":null}},{"type":"Feature","geometry":{"type":"Polygon","coordinates":[[[16.614908,49.210479],[16.614861,49.210462],[16.61483,49.2105],[16.614877,49.210516],[16.614908,49.210479]]]},"properties":{"id":479954,"buildingId":465899,"floorId":479934,"floorLevel":2,"name":"BA25N2009","type":"kitchen","category":"service","label":"Kitchen","passportNumber":"BA25N2009","seats":null,"hasProjector":false,"hasWhiteboard":false,"code":null}},{"type":"Feature","geometry":{"type":"Polygon","coordinates":[[[16.61495,49.210507],[16.61494,49.210504],[16.614948,49.210493],[16.61491,49.21048],[16.614889,49.210505],[16.614938,49.210522],[16.61495,49.210507]]]},"properties":{"id":479955,"buildingId":465899,"floorId":479934,"floorLevel":2,"name":"BA25N2010","type":"kitchen","category":"service","label":"Kitchen","passportNumber":"BA25N2010","seats":null,"hasProjector":false,"hasWhiteboard":false,"code":null}},{"type":"Feature","geometry":{"type":"Polygon","coordinates":[[[16.614935,49.210524],[16.614889,49.210508],[16.614874,49.210525],[16.614921,49.210542],[16.614935,49.210524]]]},"properties":{"id":479956,"buildingId":465899,"floorId":479934,"floorLevel":2,"name":"BA25N2008","type":"food_storage","category":"other","label":"food storage","passportNumber":"BA25N2008","seats":null,"hasProjector":false,"hasWhiteboard":false,"code":null}},{"type":"Feature","geometry":{"type":"Polygon","coordinates":[[[16.614995,49.210555],[16.614998,49.210552],[16.615001,49.210547],[16.615003,49.210542],[16.615005,49.210538],[16.615007,49.210533],[16.615008,49.210529],[16.61501,49.210524],[16.615011,49.210518],[16.61501,49.210518],[16.615011,49.210511],[16.615011,49.210511],[16.615011,49.210507],[16.615011,49.210501],[16.61499,49.210493],[16.614948,49.210545],[16.614992,49.21056],[16.614995,49.210555]]]},"properties":{"id":479957,"buildingId":465899,"floorId":479934,"floorLevel":2,"name":"BA25N2014","type":"kitchen","category":"service","label":"Kitchen","passportNumber":"BA25N2014","seats":null,"hasProjector":false,"hasWhiteboard":false,"code":null}},{"type":"Feature","geometry":{"type":"Polygon","coordinates":[[[16.614763,49.210562],[16.614773,49.210565],[16.61487,49.210449],[16.614817,49.21043],[16.614817,49.21043],[16.614817,49.21043],[16.614816,49.21043],[16.614816,49.210431],[16.614816,49.210431],[16.614815,49.210431],[16.614815,49.210431],[16.614814,49.210431],[16.614813,49.210431],[16.614813,49.210431],[16.614812,49.210431],[16.614812,49.210431],[16.614812,49.21043],[16.614812,49.21043],[16.614811,49.21043],[16.614811,49.21043],[16.614777,49.210418],[16.614768,49.210429],[16.614749,49.210422],[16.614692,49.210491],[16.614693,49.210492],[16.614653,49.21054],[16.614722,49.210565],[16.614729,49.210558],[16.614758,49.210568],[16.614763,49.210562]]]},"properties":{"id":479958,"buildingId":465899,"floorId":479934,"floorLevel":2,"name":"BA25N2002","type":"food_serving","category":"other","label":"food serving","passportNumber":"BA25N2002","seats":null,"hasProjector":false,"hasWhiteboard":false,"code":null}},{"type":"Feature","geometry":{"type":"Polygon","coordinates":[[[16.614945,49.210597],[16.614948,49.210596],[16.614953,49.210593],[16.614959,49.210589],[16.614968,49.210583],[16.614974,49.210578],[16.61498,49.210573],[16.614986,49.210567],[16.614989,49.210563],[16.614991,49.210561],[16.614948,49.210546],[16.614914,49.210587],[16.614944,49.210598],[16.614945,49.210597]]]},"properties":{"id":479959,"buildingId":465899,"floorId":479934,"floorLevel":2,"name":"BA25N2013","type":"dish_washing_room","category":"other","label":"dish washing room","passportNumber":"BA25N2013","seats":null,"hasProjector":false,"hasWhiteboard":false,"code":null}},{"type":"Feature","geometry":{"type":"Polygon","coordinates":[[[16.614905,49.210562],[16.614898,49.210559],[16.614912,49.210542],[16.614871,49.210527],[16.614864,49.210536],[16.614861,49.210535],[16.614876,49.210518],[16.614829,49.210501],[16.614813,49.210519],[16.614816,49.21052],[16.614815,49.210522],[16.614812,49.210521],[16.614775,49.210566],[16.614852,49.210593],[16.614852,49.210593],[16.614853,49.210593],[16.614853,49.210593],[16.614854,49.210593],[16.614854,49.210593],[16.614855,49.210593],[16.614856,49.210593],[16.614857,49.210593],[16.614857,49.210593],[16.614858,49.210593],[16.614858,49.210593],[16.614858,49.210594],[16.614859,49.210594],[16.614859,49.210595],[16.614859,49.210595],[16.614859,49.210596],[16.614859,49.210596],[16.614859,49.210597],[16.614858,49.210598],[16.614871,49.210603],[16.614905,49.210562]]]},"properties":{"id":479960,"buildingId":465899,"floorId":479934,"floorLevel":2,"name":"BA25N2007","type":"kitchen","category":"service","label":"Kitchen","passportNumber":"BA25N2007","seats":null,"hasProjector":false,"hasWhiteboard":false,"code":null}},{"type":"Feature","geometry":{"type":"Polygon","coordinates":[[[16.614722,49.210566],[16.614651,49.210541],[16.614692,49.210491],[16.614749,49.210422],[16.61475,49.210421],[16.614767,49.210427],[16.614777,49.210415],[16.61476,49.210409],[16.614719,49.210394],[16.614722,49.210391],[16.614548,49.210329],[16.614586,49.210283],[16.614579,49.210283],[16.614569,49.210282],[16.61456,49.210282],[16.61455,49.210283],[16.614538,49.210284],[16.614527,49.210286],[16.614518,49.210288],[16.614502,49.210292],[16.614488,49.210297],[16.614476,49.210302],[16.614467,49.210306],[16.614454,49.210313],[16.614444,49.210319],[16.614433,49.210327],[16.614424,49.210334],[16.614416,49.210341],[16.614409,49.210349],[16.614403,49.210356],[16.614396,49.210366],[16.61439,49.210378],[16.614386,49.210387],[16.614383,49.210396],[16.614381,49.210404],[16.61438,49.210412],[16.61438,49.210421],[16.614381,49.210428],[16.614381,49.210435],[16.614383,49.210441],[16.614386,49.210451],[16.614388,49.210457],[16.614391,49.210464],[16.614396,49.210471],[16.614399,49.210477],[16.614404,49.210484],[16.614409,49.21049],[16.614415,49.210496],[16.614425,49.210505],[16.614431,49.21051],[16.614438,49.210515],[16.614449,49.210522],[16.614458,49.210527],[16.614467,49.210532],[16.61448,49.210538],[16.614492,49.210542],[16.614515,49.21055],[16.614529,49.210555],[16.614556,49.210564],[16.614592,49.210574],[16.61462,49.210582],[16.614644,49.210589],[16.614661,49.210593],[16.614675,49.210596],[16.614693,49.210601],[16.614722,49.210566]]]},"properties":{"id":479961,"buildingId":465899,"floorId":479934,"floorLevel":2,"name":"BA25N2001","type":"dining_room","category":"other","label":"dining room","passportNumber":"BA25N2001","seats":null,"hasProjector":false,"hasWhiteboard":false,"code":null}},{"type":"Feature","geometry":{"type":"Polygon","coordinates":[[[16.614988,49.210492],[16.61487,49.210451],[16.614862,49.210461],[16.614961,49.210496],[16.614921,49.210545],[16.614914,49.210542],[16.614907,49.210551],[16.614914,49.210554],[16.614872,49.210604],[16.61489,49.210611],[16.614988,49.210492]]]},"properties":{"id":479962,"buildingId":465899,"floorId":479934,"floorLevel":2,"name":"BA25N2011","type":"floor","category":"structure","label":"Corridor","passportNumber":"BA25N2011","seats":null,"hasProjector":false,"hasWhiteboard":false,"code":null}},{"type":"Feature","geometry":{"type":"Polygon","coordinates":[[[16.614895,49.210615],[16.6149,49.210614],[16.614906,49.210613],[16.614912,49.210611],[16.614916,49.21061],[16.614923,49.210607],[16.614932,49.210604],[16.614935,49.210602],[16.614939,49.210598],[16.614911,49.210588],[16.614904,49.210596],[16.614908,49.210598],[16.614893,49.210616],[16.614895,49.210615]]]},"properties":{"id":479963,"buildingId":465899,"floorId":479934,"floorLevel":2,"name":"BA25N2012","type":"garbage","category":"other","label":"garbage","passportNumber":"BA25N2012","seats":null,"hasProjector":false,"hasWhiteboard":false,"code":null}},{"type":"Feature","geometry":{"type":"Polygon","coordinates":[[[16.614892,49.210611],[16.61489,49.210611],[16.614872,49.210604],[16.614855,49.210598],[16.614847,49.210608],[16.614859,49.210612],[16.614884,49.210621],[16.614892,49.210611]]]},"properties":{"id":479964,"buildingId":465899,"floorId":479934,"floorLevel":2,"name":"BA25N2006","type":"floor","category":"structure","label":"Corridor","passportNumber":"BA25N2006","seats":null,"hasProjector":false,"hasWhiteboard":false,"code":null}},{"type":"Feature","geometry":{"type":"Polygon","coordinates":[[[16.614853,49.210598],[16.614853,49.210597],[16.614852,49.210597],[16.614851,49.210597],[16.614851,49.210596],[16.614851,49.210596],[16.614851,49.210596],[16.614851,49.210596],[16.614763,49.210564],[16.614759,49.21057],[16.61473,49.210559],[16.614696,49.210599],[16.6147,49.2106],[16.614706,49.210602],[16.61472,49.210605],[16.614733,49.210607],[16.61474,49.210609],[16.614746,49.21061],[16.614752,49.210611],[16.614759,49.210612],[16.614767,49.210614],[16.614775,49.210616],[16.614783,49.210617],[16.614791,49.210618],[16.614794,49.210619],[16.614797,49.210619],[16.614803,49.21062],[16.614808,49.210621],[16.614814,49.210621],[16.614821,49.210622],[16.614825,49.210622],[16.614829,49.210622],[16.614833,49.210622],[16.614853,49.210598]]]},"properties":{"id":479965,"buildingId":465899,"floorId":479934,"floorLevel":2,"name":"BA25N2003","type":"dish_washing_room","category":"other","label":"dish washing room","passportNumber":"BA25N2003","seats":null,"hasProjector":false,"hasWhiteboard":false,"code":null}},{"type":"Feature","geometry":{"type":"Polygon","coordinates":[[[16.614856,49.210613],[16.614848,49.21061],[16.614831,49.21063],[16.61484,49.210633],[16.614856,49.210613]]]},"properties":{"id":479966,"buildingId":465899,"floorId":479934,"floorLevel":2,"name":"BA25N2032","type":"shaft","category":"service","label":"Shaft","passportNumber":"BA25N2032","seats":null,"hasProjector":false,"hasWhiteboard":false,"code":null}},{"type":"Feature","geometry":{"type":"Polygon","coordinates":[[[16.61486,49.210662],[16.614834,49.210653],[16.614819,49.210672],[16.614844,49.210681],[16.61486,49.210662]]]},"properties":{"id":479967,"buildingId":465899,"floorId":479934,"floorLevel":2,"name":"BA25N2026","type":"elevator","category":"circulation","label":"Elevator","passportNumber":"BA25N2026","seats":null,"hasProjector":false,"hasWhiteboard":false,"code":null}},{"type":"Feature","geometry":{"type":"Polygon","coordinates":[[[16.614879,49.210667],[16.61488,49.210667],[16.614891,49.210653],[16.614865,49.210643],[16.614883,49.210622],[16.614858,49.210613],[16.614841,49.210634],[16.61483,49.210631],[16.614792,49.210677],[16.614852,49.210699],[16.614879,49.210667]]]},"properties":{"id":479968,"buildingId":465899,"floorId":479934,"floorLevel":2,"name":"BA25N2004","type":"stairs","category":"circulation","label":"Stairs","passportNumber":"BA25N2004","seats":null,"hasProjector":false,"hasWhiteboard":false,"code":null}},{"type":"Feature","geometry":{"type":"Polygon","coordinates":[[[16.615037,49.210705],[16.614893,49.210654],[16.614883,49.210666],[16.615027,49.210717],[16.615037,49.210705]]]},"properties":{"id":479969,"buildingId":465899,"floorId":479934,"floorLevel":2,"name":"BA25N2005","type":"floor","category":"structure","label":"Corridor","passportNumber":"BA25N2005","seats":null,"hasProjector":false,"hasWhiteboard":false,"code":null}},{"type":"Feature","geometry":{"type":"Polygon","coordinates":[[[16.614776,49.210386],[16.614767,49.210382],[16.614749,49.210404],[16.614759,49.210407],[16.614776,49.210386]]]},"properties":{"id":480377,"buildingId":465899,"floorId":480376,"floorLevel":3,"name":"BA25N3020","type":"shaft","category":"service","label":"Shaft","passportNumber":"BA25N3020","seats":null,"hasProjector":false,"hasWhiteboard":false,"code":null}},{"type":"Feature","geometry":{"type":"Polygon","coordinates":[[[16.614941,49.210475],[16.614879,49.210452],[16.614862,49.210472],[16.614925,49.210494],[16.614941,49.210475]]]},"properties":{"id":480378,"buildingId":465899,"floorId":480376,"floorLevel":3,"name":"BA25N3009","type":"daily_room","category":"other","label":"daily room","passportNumber":"BA25N3009","seats":null,"hasProjector":false,"hasWhiteboard":false,"code":null}},{"type":"Feature","geometry":{"type":"Polygon","coordinates":[[[16.614959,49.210496],[16.614953,49.210493],[16.614944,49.210504],[16.614951,49.210506],[16.614959,49.210496]]]},"properties":{"id":480379,"buildingId":465899,"floorId":480376,"floorLevel":3,"name":"BA25N3022","type":"shaft","category":"service","label":"Shaft","passportNumber":"BA25N3022","seats":null,"hasProjector":false,"hasWhiteboard":false,"code":null}},{"type":"Feature","geometry":{"type":"Polygon","coordinates":[[[16.614924,49.210495],[16.614862,49.210473],[16.614847,49.210491],[16.614909,49.210513],[16.614924,49.210495]]]},"properties":{"id":480380,"buildingId":465899,"floorId":480376,"floorLevel":3,"name":"BA25N3010","type":"storage","category":"service","label":"Storage","passportNumber":"BA25N3010","seats":null,"hasProjector":false,"hasWhiteboard":false,"code":null}},{"type":"Feature","geometry":{"type":"Polygon","coordinates":[[[16.614991,49.210492],[16.614943,49.210475],[16.614935,49.210485],[16.614962,49.210495],[16.614953,49.210507],[16.614972,49.210514],[16.614991,49.210492]]]},"properties":{"id":480381,"buildingId":465899,"floorId":480376,"floorLevel":3,"name":"BA25N3008","type":"storage","category":"service","label":"Storage","passportNumber":"BA25N3008","seats":null,"hasProjector":false,"hasWhiteboard":false,"code":null}},{"type":"Feature","geometry":{"type":"Polygon","coordinates":[[[16.614869,49.2105],[16.614858,49.210496],[16.614852,49.210503],[16.614851,49.210503],[16.614857,49.210496],[16.614846,49.210492],[16.614829,49.210512],[16.614852,49.21052],[16.614869,49.2105]]]},"properties":{"id":480382,"buildingId":465899,"floorId":480376,"floorLevel":3,"name":"BA25N3012","type":"shower","category":"service","label":"Shower","passportNumber":"BA25N3012","seats":null,"hasProjector":false,"hasWhiteboard":false,"code":null}},{"type":"Feature","geometry":{"type":"Polygon","coordinates":[[[16.614726,49.210442],[16.61473,49.210443],[16.614757,49.210409],[16.614645,49.210369],[16.614549,49.210485],[16.614658,49.210524],[16.614726,49.210442]]]},"properties":{"id":480383,"buildingId":465899,"floorId":480376,"floorLevel":3,"name":"BA25N3019","type":"engine_room","category":"service","label":"Engine room","passportNumber":"BA25N3019","seats":null,"hasProjector":false,"hasWhiteboard":false,"code":null}},{"type":"Feature","geometry":{"type":"Polygon","coordinates":[[[16.614851,49.210522],[16.614828,49.210514],[16.614818,49.210526],[16.614841,49.210534],[16.614851,49.210522]]]},"properties":{"id":480384,"buildingId":465899,"floorId":480376,"floorLevel":3,"name":"BA25N3013","type":"toilet","category":"service","label":"Toilet","passportNumber":"BA25N3013","seats":null,"hasProjector":false,"hasWhiteboard":false,"code":null}},{"type":"Feature","geometry":{"type":"Polygon","coordinates":[[[16.614839,49.210536],[16.614816,49.210528],[16.614806,49.21054],[16.614829,49.210548],[16.614839,49.210536]]]},"properties":{"id":480385,"buildingId":465899,"floorId":480376,"floorLevel":3,"name":"BA25N3015","type":"toilet","category":"service","label":"Toilet","passportNumber":"BA25N3015","seats":null,"hasProjector":false,"hasWhiteboard":false,"code":null}},{"type":"Feature","geometry":{"type":"Polygon","coordinates":[[[16.614972,49.210515],[16.61494,49.210504],[16.61491,49.210541],[16.614941,49.210552],[16.614972,49.210515]]]},"properties":{"id":480386,"buildingId":465899,"floorId":480376,"floorLevel":3,"name":"BA25N3007","type":"storage","category":"service","label":"Storage","passportNumber":"BA25N3007","seats":null,"hasProjector":false,"hasWhiteboard":false,"code":null}},{"type":"Feature","geometry":{"type":"Polygon","coordinates":[[[16.614908,49.210514],[16.61487,49.210501],[16.614854,49.21052],[16.614876,49.210528],[16.614875,49.210529],[16.614853,49.210521],[16.614837,49.21054],[16.614876,49.210554],[16.614908,49.210514]]]},"properties":{"id":480387,"buildingId":465899,"floorId":480376,"floorLevel":3,"name":"BA25N3011","type":"coatroom","category":"service","label":"Cloakroom","passportNumber":"BA25N3011","seats":null,"hasProjector":false,"hasWhiteboard":false,"code":null}},{"type":"Feature","geometry":{"type":"Polygon","coordinates":[[[16.614828,49.210549],[16.614805,49.210541],[16.6148,49.210547],[16.614811,49.210551],[16.61481,49.210552],[16.614799,49.210548],[16.614793,49.210555],[16.614816,49.210563],[16.614828,49.210549]]]},"properties":{"id":480388,"buildingId":465899,"floorId":480376,"floorLevel":3,"name":"BA25N3016","type":"shower","category":"service","label":"Shower","passportNumber":"BA25N3016","seats":null,"hasProjector":false,"hasWhiteboard":false,"code":null}},{"type":"Feature","geometry":{"type":"Polygon","coordinates":[[[16.61494,49.210554],[16.614909,49.210542],[16.614898,49.210555],[16.614929,49.210566],[16.61494,49.210554]]]},"properties":{"id":480389,"buildingId":465899,"floorId":480376,"floorLevel":3,"name":"BA25N3006","type":"storage","category":"service","label":"Storage","passportNumber":"BA25N3006","seats":null,"hasProjector":false,"hasWhiteboard":false,"code":null}},{"type":"Feature","geometry":{"type":"Polygon","coordinates":[[[16.614876,49.210451],[16.614759,49.21041],[16.61473,49.210445],[16.614727,49.210443],[16.61466,49.210524],[16.61478,49.210567],[16.614876,49.210451]]]},"properties":{"id":480390,"buildingId":465899,"floorId":480376,"floorLevel":3,"name":"BA25N3001","type":"engine_room","category":"service","label":"Engine room","passportNumber":"BA25N3001","seats":null,"hasProjector":false,"hasWhiteboard":false,"code":null}},{"type":"Feature","geometry":{"type":"Polygon","coordinates":[[[16.614928,49.210567],[16.614897,49.210556],[16.61489,49.210565],[16.614921,49.210576],[16.614928,49.210567]]]},"properties":{"id":480391,"buildingId":465899,"floorId":480376,"floorLevel":3,"name":"BA25N3005","type":"utility_room","category":"service","label":"Utility","passportNumber":"BA25N3005","seats":null,"hasProjector":false,"hasWhiteboard":false,"code":null}},{"type":"Feature","geometry":{"type":"Polygon","coordinates":[[[16.614875,49.210555],[16.614836,49.210541],[16.614817,49.210564],[16.614856,49.210577],[16.614875,49.210555]]]},"properties":{"id":480392,"buildingId":465899,"floorId":480376,"floorLevel":3,"name":"BA25N3014","type":"coatroom","category":"service","label":"Cloakroom","passportNumber":"BA25N3014","seats":null,"hasProjector":false,"hasWhiteboard":false,"code":null}},{"type":"Feature","geometry":{"type":"Polygon","coordinates":[[[16.61492,49.210578],[16.614889,49.210567],[16.614874,49.210584],[16.614905,49.210595],[16.61492,49.210578]]]},"properties":{"id":480393,"buildingId":465899,"floorId":480376,"floorLevel":3,"name":"BA25N3004","type":"office","category":"office","label":"Office","passportNumber":"BA25N3004","seats":null,"hasProjector":false,"hasWhiteboard":false,"code":null}},{"type":"Feature","geometry":{"type":"Polygon","coordinates":[[[16.614904,49.210596],[16.614871,49.210584],[16.61494,49.210502],[16.614943,49.210504],[16.614951,49.210493],[16.614933,49.210487],[16.614857,49.210579],[16.614791,49.210556],[16.614781,49.210568],[16.61486,49.210596],[16.614894,49.210608],[16.614904,49.210596]]]},"properties":{"id":480394,"buildingId":465899,"floorId":480376,"floorLevel":3,"name":"BA25N3018","type":"floor","category":"structure","label":"Corridor","passportNumber":"BA25N3018","seats":null,"hasProjector":false,"hasWhiteboard":false,"code":null}},{"type":"Feature","geometry":{"type":"Polygon","coordinates":[[[16.614894,49.210608],[16.61486,49.210596],[16.614849,49.210608],[16.614859,49.210612],[16.614884,49.210621],[16.614894,49.210608]]]},"properties":{"id":480395,"buildingId":465899,"floorId":480376,"floorLevel":3,"name":"BA25N3003","type":"floor","category":"structure","label":"Corridor","passportNumber":"BA25N3003","seats":null,"hasProjector":false,"hasWhiteboard":false,"code":null}},{"type":"Feature","geometry":{"type":"Polygon","coordinates":[[[16.614856,49.210613],[16.614848,49.21061],[16.614831,49.21063],[16.61484,49.210633],[16.614856,49.210613]]]},"properties":{"id":480396,"buildingId":465899,"floorId":480376,"floorLevel":3,"name":"BA25N3021","type":"shaft","category":"service","label":"Shaft","passportNumber":"BA25N3021","seats":null,"hasProjector":false,"hasWhiteboard":false,"code":null}},{"type":"Feature","geometry":{"type":"Polygon","coordinates":[[[16.614891,49.210652],[16.614865,49.210643],[16.614883,49.210622],[16.614858,49.210613],[16.614841,49.210634],[16.61483,49.210631],[16.614818,49.210645],[16.614833,49.210651],[16.614861,49.21066],[16.614864,49.210662],[16.614863,49.210663],[16.614878,49.210668],[16.614891,49.210652]]]},"properties":{"id":480397,"buildingId":465899,"floorId":480376,"floorLevel":3,"name":"BA25N3002","type":"stairs","category":"circulation","label":"Stairs","passportNumber":"BA25N3002","seats":null,"hasProjector":false,"hasWhiteboard":false,"code":null}},{"type":"Feature","geometry":{"type":"Polygon","coordinates":[[[16.61486,49.210662],[16.614834,49.210653],[16.614819,49.210672],[16.614844,49.210681],[16.61486,49.210662]]]},"properties":{"id":480398,"buildingId":465899,"floorId":480376,"floorLevel":3,"name":"BA25N3017","type":"elevator","category":"circulation","label":"Elevator","passportNumber":"BA25N3017","seats":null,"hasProjector":false,"hasWhiteboard":false,"code":null}}]}