{"type":"FeatureCollection","features":[{"type":"Feature","geometry":{"type":"Polygon","coordinates":[[[16.618766,49.210732],[16.618736,49.210725],[16.618729,49.210737],[16.618713,49.210764],[16.61871,49.210769],[16.618709,49.21077],[16.618709,49.210771],[16.618712,49.210773],[16.618721,49.210775],[16.618724,49.210776],[16.618734,49.210779],[16.618737,49.210779],[16.61874,49.210777],[16.61874,49.210777],[16.618766,49.210732]]]},"properties":{"id":1280934,"buildingId":1279313,"floorId":1280922,"floorLevel":-1,"name":"","nickname":null,"type":"stairs","category":"circulation","label":"Stairs","passportNumber":null,"seats":null,"hasProjector":false,"hasWhiteboard":false,"code":null}},{"type":"Feature","geometry":{"type":"Polygon","coordinates":[[[16.618873,49.211036],[16.618874,49.211033],[16.618877,49.211034],[16.618915,49.210969],[16.618912,49.210969],[16.618914,49.210966],[16.61891,49.210965],[16.618912,49.210962],[16.618889,49.210956],[16.618903,49.21093],[16.618901,49.21093],[16.618901,49.210931],[16.618901,49.210931],[16.618895,49.21094],[16.618895,49.210941],[16.618892,49.210945],[16.618892,49.210946],[16.618887,49.210954],[16.618887,49.210955],[16.618886,49.210955],[16.618868,49.210951],[16.618868,49.21095],[16.618868,49.21095],[16.618873,49.210941],[16.618872,49.210941],[16.618871,49.21094],[16.618866,49.21095],[16.618807,49.210935],[16.618765,49.211005],[16.618767,49.211006],[16.618777,49.211008],[16.618775,49.211011],[16.618834,49.211026],[16.618836,49.211023],[16.618846,49.211026],[16.618844,49.211028],[16.618873,49.211036]]]},"properties":{"id":1281081,"buildingId":1279313,"floorId":1280922,"floorLevel":-1,"name":"","nickname":null,"type":"room","category":"other","label":"Room","passportNumber":null,"seats":null,"hasProjector":false,"hasWhiteboard":false,"code":null}},{"type":"Feature","geometry":{"type":"Polygon","coordinates":[[[16.618928,49.210958],[16.618929,49.210956],[16.61893,49.210955],[16.618931,49.210953],[16.618932,49.210952],[16.618933,49.21095],[16.618933,49.210949],[16.618934,49.210947],[16.618935,49.210946],[16.618936,49.210944],[16.618937,49.210943],[16.618938,49.210941],[16.618939,49.210939],[16.61894,49.210938],[16.618941,49.210936],[16.618942,49.210935],[16.618942,49.210933],[16.618943,49.210932],[16.618944,49.21093],[16.618945,49.210929],[16.618946,49.210927],[16.618947,49.210926],[16.618948,49.210924],[16.618949,49.210923],[16.61895,49.210921],[16.61895,49.21092],[16.618963,49.210899],[16.61897,49.210901],[16.618987,49.210873],[16.618978,49.210871],[16.618958,49.210865],[16.618946,49.210862],[16.618939,49.210861],[16.618925,49.210857],[16.618918,49.210855],[16.618904,49.210852],[16.618897,49.21085],[16.618886,49.210847],[16.618886,49.210847],[16.618886,49.210847],[16.618885,49.210847],[16.618885,49.210847],[16.618885,49.210847],[16.618885,49.210847],[16.618885,49.210847],[16.618884,49.210847],[16.618884,49.210847],[16.618884,49.210847],[16.618884,49.210846],[16.618884,49.210846],[16.618883,49.210846],[16.618883,49.210846],[16.618883,49.210846],[16.618883,49.210846],[16.618883,49.210846],[16.618883,49.210846],[16.618883,49.210846],[16.618883,49.210846],[16.618883,49.210846],[16.618882,49.210845],[16.618882,49.210845],[16.618882,49.210845],[16.618882,49.210845],[16.618881,49.210845],[16.618881,49.210844],[16.618881,49.210844],[16.618881,49.210844],[16.618881,49.210843],[16.618881,49.210843],[16.618881,49.210843],[16.618881,49.210843],[16.61888,49.210842],[16.61888,49.210842],[16.61888,49.210842],[16.61888,49.210841],[16.618881,49.210841],[16.618881,49.210841],[16.618881,49.21084],[16.618881,49.21084],[16.618881,49.21084],[16.618881,49.21084],[16.618881,49.21084],[16.618881,49.21084],[16.618881,49.21084],[16.618881,49.21084],[16.618885,49.210834],[16.618874,49.210831],[16.618854,49.210826],[16.618826,49.210819],[16.618823,49.210823],[16.618823,49.210824],[16.618813,49.21084],[16.618814,49.21084],[16.618809,49.210847],[16.618842,49.210856],[16.618842,49.210856],[16.618845,49.210857],[16.618858,49.21086],[16.618863,49.210861],[16.618866,49.210862],[16.618865,49.210865],[16.618861,49.210864],[16.618853,49.210878],[16.618857,49.210879],[16.618855,49.210881],[16.618851,49.21088],[16.618831,49.210875],[16.618831,49.210876],[16.618797,49.210867],[16.618796,49.210869],[16.618775,49.210864],[16.618769,49.210874],[16.618765,49.210882],[16.618777,49.210885],[16.618785,49.210887],[16.618809,49.210893],[16.618806,49.210898],[16.618782,49.210892],[16.618775,49.21089],[16.618762,49.210887],[16.618761,49.210889],[16.618756,49.210897],[16.61875,49.210907],[16.618745,49.210916],[16.618743,49.210919],[16.618769,49.210925],[16.618782,49.210902],[16.61879,49.210904],[16.618801,49.210907],[16.6188,49.210908],[16.618799,49.21091],[16.618798,49.210911],[16.618797,49.210913],[16.618796,49.210914],[16.618796,49.210916],[16.618795,49.210917],[16.618794,49.210919],[16.618793,49.21092],[16.618792,49.210922],[16.618791,49.210924],[16.618787,49.21093],[16.618806,49.210935],[16.618807,49.210935],[16.618866,49.21095],[16.618871,49.21094],[16.618871,49.21094],[16.618874,49.210935],[16.618875,49.210935],[16.618881,49.210925],[16.618883,49.210925],[16.618901,49.21093],[16.618903,49.21093],[16.618889,49.210956],[16.618912,49.210962],[16.618924,49.210965],[16.618928,49.210958]]]},"properties":{"id":1281072,"buildingId":1279313,"floorId":1280922,"floorLevel":-1,"name":"BA05P1038Z","nickname":null,"type":"representative_space","category":"other","label":"representative space","passportNumber":"BA05P1038Z","seats":null,"hasProjector":false,"hasWhiteboard":false,"code":null}},{"type":"Feature","geometry":{"type":"Polygon","coordinates":[[[16.61883,49.210868],[16.618836,49.210857],[16.618811,49.210851],[16.618809,49.210855],[16.618808,49.210855],[16.618802,49.210865],[16.618803,49.210865],[16.618812,49.210867],[16.618812,49.210867],[16.618813,49.210867],[16.618828,49.210871],[16.61883,49.210868]]]},"properties":{"id":1282859,"buildingId":1279313,"floorId":1282786,"floorLevel":3,"name":"BA05N3037","nickname":null,"type":"elevator","category":"circulation","label":"Elevator","passportNumber":"BA05N3037","seats":null,"hasProjector":false,"hasWhiteboard":false,"code":null}},{"type":"Feature","geometry":{"type":"Polygon","coordinates":[[[16.61887,49.210757],[16.618828,49.210747],[16.618803,49.210788],[16.618846,49.210799],[16.61887,49.210757]]]},"properties":{"id":1283631,"buildingId":1279313,"floorId":1283628,"floorLevel":2,"name":"BA05N2019","nickname":null,"type":"office","category":"office","label":"Office","passportNumber":"BA05N2019","seats":null,"hasProjector":false,"hasWhiteboard":false,"code":null}},{"type":"Feature","geometry":{"type":"Polygon","coordinates":[[[16.618782,49.21089],[16.618793,49.21087],[16.618786,49.210869],[16.618787,49.210867],[16.618776,49.210864],[16.618763,49.210885],[16.618782,49.21089]]]},"properties":{"id":1283716,"buildingId":1279313,"floorId":1283628,"floorLevel":2,"name":"","nickname":null,"type":"balcony","category":"other","label":"balcony","passportNumber":null,"seats":null,"hasProjector":false,"hasWhiteboard":false,"code":null}},{"type":"Feature","geometry":{"type":"Polygon","coordinates":[[[16.61883,49.210868],[16.618836,49.210857],[16.618811,49.210851],[16.618809,49.210855],[16.618808,49.210855],[16.618802,49.210865],[16.618803,49.210865],[16.618812,49.210867],[16.618812,49.210867],[16.618813,49.210867],[16.618828,49.210871],[16.61883,49.210868]]]},"properties":{"id":1283690,"buildingId":1279313,"floorId":1283628,"floorLevel":2,"name":"BA05N2037","nickname":null,"type":"elevator","category":"circulation","label":"Elevator","passportNumber":"BA05N2037","seats":null,"hasProjector":false,"hasWhiteboard":false,"code":null}},{"type":"Feature","geometry":{"type":"Polygon","coordinates":[[[16.618762,49.210858],[16.618751,49.210855],[16.618733,49.210851],[16.618725,49.210864],[16.618725,49.210864],[16.61873,49.210865],[16.618743,49.210869],[16.618741,49.210872],[16.618757,49.210876],[16.618758,49.210874],[16.618765,49.210862],[16.618767,49.210859],[16.618762,49.210858]]]},"properties":{"id":1283692,"buildingId":1279313,"floorId":1283628,"floorLevel":2,"name":"BA05N2004","nickname":null,"type":"toilet","category":"service","label":"Toilet","passportNumber":"BA05N2004","seats":null,"hasProjector":false,"hasWhiteboard":false,"code":null}},{"type":"Feature","geometry":{"type":"Polygon","coordinates":[[[16.618707,49.210881],[16.618707,49.210881],[16.618711,49.210875],[16.61871,49.210874],[16.618717,49.210863],[16.618695,49.210858],[16.618691,49.210866],[16.618685,49.210865],[16.618684,49.210867],[16.618683,49.210866],[16.618679,49.210874],[16.61868,49.210874],[16.618679,49.210875],[16.618706,49.210882],[16.618707,49.210881]]]},"properties":{"id":1283693,"buildingId":1279313,"floorId":1283628,"floorLevel":2,"name":"BA05N2006","nickname":null,"type":"toilet","category":"service","label":"Toilet","passportNumber":"BA05N2006","seats":null,"hasProjector":false,"hasWhiteboard":false,"code":null}},{"type":"Feature","geometry":{"type":"Polygon","coordinates":[[[16.618746,49.210896],[16.618752,49.210884],[16.618742,49.210882],[16.618743,49.210881],[16.618753,49.210884],[16.618757,49.210877],[16.618737,49.210871],[16.618733,49.210879],[16.618734,49.210879],[16.618733,49.21088],[16.618731,49.210879],[16.618731,49.210878],[16.618732,49.210878],[16.618736,49.210871],[16.618716,49.210866],[16.618712,49.210873],[16.618712,49.210873],[16.618722,49.210876],[16.618722,49.210877],[16.618712,49.210874],[16.618711,49.210875],[16.618707,49.210881],[16.618705,49.210886],[16.618745,49.210897],[16.618746,49.210896]]]},"properties":{"id":1283694,"buildingId":1279313,"floorId":1283628,"floorLevel":2,"name":"BA05N2007","nickname":"E44","type":"toilet","category":"service","label":"Toilet","passportNumber":"BA05N2007","seats":null,"hasProjector":false,"hasWhiteboard":false,"code":null}},{"type":"Feature","geometry":{"type":"Polygon","coordinates":[[[16.61874,49.210777],[16.61874,49.210777],[16.618766,49.210732],[16.618764,49.210732],[16.618739,49.210725],[16.618736,49.210725],[16.618719,49.210754],[16.61871,49.21077],[16.61871,49.21077],[16.61871,49.21077],[16.61871,49.21077],[16.61871,49.21077],[16.61871,49.21077],[16.61871,49.210771],[16.61871,49.210771],[16.61871,49.210771],[16.61871,49.210771],[16.61871,49.210771],[16.61871,49.210771],[16.61871,49.210772],[16.61871,49.210772],[16.61871,49.210772],[16.61871,49.210772],[16.61871,49.210772],[16.61871,49.210772],[16.61871,49.210772],[16.618711,49.210773],[16.618711,49.210773],[16.618711,49.210773],[16.618711,49.210773],[16.618711,49.210773],[16.618711,49.210773],[16.618712,49.210773],[16.618712,49.210773],[16.618712,49.210773],[16.618712,49.210773],[16.618712,49.210773],[16.618735,49.210779],[16.618735,49.210779],[16.618735,49.210779],[16.618736,49.210779],[16.618736,49.210779],[16.618736,49.210779],[16.618737,49.210779],[16.618737,49.210779],[16.618737,49.210779],[16.618738,49.210779],[16.618738,49.210779],[16.618738,49.210779],[16.618739,49.210778],[16.618739,49.210778],[16.618739,49.210778],[16.618739,49.210778],[16.61874,49.210778],[16.61874,49.210777]]]},"properties":{"id":1284930,"buildingId":1279313,"floorId":1284894,"floorLevel":1,"name":"","nickname":null,"type":"stairs","category":"circulation","label":"Stairs","passportNumber":null,"seats":null,"hasProjector":false,"hasWhiteboard":false,"code":null}},{"type":"Feature","geometry":{"type":"Polygon","coordinates":[[[16.618783,49.210892],[16.618783,49.210892],[16.618775,49.21089],[16.618778,49.210885],[16.618766,49.210882],[16.618766,49.210883],[16.618763,49.210883],[16.618761,49.210886],[16.618752,49.210901],[16.61875,49.210905],[16.618747,49.210909],[16.618744,49.210915],[16.618742,49.210918],[16.618751,49.210921],[16.618764,49.210924],[16.618765,49.210924],[16.618783,49.210892]]]},"properties":{"id":1284970,"buildingId":1279313,"floorId":1284894,"floorLevel":1,"name":"","nickname":null,"type":"terrace","category":"circulation","label":"Terrace","passportNumber":null,"seats":null,"hasProjector":false,"hasWhiteboard":false,"code":null}},{"type":"Feature","geometry":{"type":"Polygon","coordinates":[[[16.618874,49.211033],[16.618877,49.211034],[16.618915,49.210969],[16.618912,49.210969],[16.618914,49.210966],[16.618891,49.21096],[16.61889,49.210962],[16.618886,49.210961],[16.618888,49.210957],[16.618887,49.210957],[16.618888,49.210957],[16.618865,49.210951],[16.618865,49.210951],[16.618864,49.210951],[16.618863,49.210953],[16.618822,49.210942],[16.618821,49.210944],[16.618817,49.210943],[16.618818,49.210941],[16.61874,49.210922],[16.618737,49.210926],[16.618726,49.210923],[16.618729,49.21092],[16.618731,49.21092],[16.618735,49.210913],[16.618737,49.210913],[16.61874,49.210907],[16.618739,49.210907],[16.618741,49.210903],[16.618731,49.2109],[16.61873,49.210903],[16.618729,49.210903],[16.61873,49.2109],[16.618676,49.210886],[16.618653,49.210924],[16.618658,49.210926],[16.618652,49.210935],[16.618646,49.210934],[16.618624,49.210971],[16.618637,49.210974],[16.618635,49.210977],[16.618686,49.21099],[16.618689,49.210986],[16.618846,49.211026],[16.618844,49.211028],[16.618873,49.211035],[16.618874,49.211033]]]},"properties":{"id":1284917,"buildingId":1279313,"floorId":1284894,"floorLevel":1,"name":"BA05N1012","nickname":"E02","type":"classroom_and_laboratory","category":"teaching","label":"Classroom / lab","passportNumber":"BA05N1012","seats":null,"hasProjector":false,"hasWhiteboard":false,"code":null}},{"type":"Feature","geometry":{"type":"Polygon","coordinates":[[[16.618707,49.210698],[16.618692,49.210694],[16.61869,49.210697],[16.618689,49.210696],[16.618691,49.210694],[16.618674,49.210689],[16.618668,49.210699],[16.618701,49.210708],[16.618707,49.210698]]]},"properties":{"id":1280923,"buildingId":1279313,"floorId":1280922,"floorLevel":-1,"name":"BA05P1061a","nickname":null,"type":"toilet","category":"service","label":"Toilet","passportNumber":"BA05P1061a","seats":null,"hasProjector":false,"hasWhiteboard":false,"code":null}},{"type":"Feature","geometry":{"type":"Polygon","coordinates":[[[16.618717,49.2107],[16.618708,49.210698],[16.618702,49.210708],[16.618711,49.210711],[16.618717,49.2107]]]},"properties":{"id":1280924,"buildingId":1279313,"floorId":1280922,"floorLevel":-1,"name":"BA05P1061","nickname":null,"type":"toilet","category":"service","label":"Toilet","passportNumber":"BA05P1061","seats":null,"hasProjector":false,"hasWhiteboard":false,"code":null}},{"type":"Feature","geometry":{"type":"Polygon","coordinates":[[[16.618682,49.210711],[16.618664,49.210706],[16.618659,49.210714],[16.618677,49.210719],[16.618682,49.210711]]]},"properties":{"id":1280925,"buildingId":1279313,"floorId":1280922,"floorLevel":-1,"name":"BA05P1059","nickname":null,"type":"toilet","category":"service","label":"Toilet","passportNumber":"BA05P1059","seats":null,"hasProjector":false,"hasWhiteboard":false,"code":null}},{"type":"Feature","geometry":{"type":"Polygon","coordinates":[[[16.618732,49.210716],[16.618737,49.210717],[16.618741,49.210709],[16.61874,49.210708],[16.61872,49.210703],[16.618715,49.210712],[16.618721,49.210713],[16.618717,49.210719],[16.618728,49.210722],[16.618732,49.210716]]]},"properties":{"id":1280926,"buildingId":1279313,"floorId":1280922,"floorLevel":-1,"name":"BA05P1062","nickname":null,"type":"storage","category":"service","label":"Storage","passportNumber":"BA05P1062","seats":null,"hasProjector":false,"hasWhiteboard":false,"code":null}},{"type":"Feature","geometry":{"type":"Polygon","coordinates":[[[16.618676,49.21072],[16.618658,49.210715],[16.618654,49.210723],[16.618672,49.210727],[16.618676,49.21072]]]},"properties":{"id":1280927,"buildingId":1279313,"floorId":1280922,"floorLevel":-1,"name":"BA05P1058","nickname":null,"type":"toilet","category":"service","label":"Toilet","passportNumber":"BA05P1058","seats":null,"hasProjector":false,"hasWhiteboard":false,"code":null}},{"type":"Feature","geometry":{"type":"Polygon","coordinates":[[[16.618671,49.210728],[16.618653,49.210724],[16.618649,49.210731],[16.618667,49.210736],[16.618671,49.210728]]]},"properties":{"id":1280928,"buildingId":1279313,"floorId":1280922,"floorLevel":-1,"name":"BA05P1057","nickname":null,"type":"toilet","category":"service","label":"Toilet","passportNumber":"BA05P1057","seats":null,"hasProjector":false,"hasWhiteboard":false,"code":null}},{"type":"Feature","geometry":{"type":"Polygon","coordinates":[[[16.618785,49.210737],[16.618791,49.210731],[16.618796,49.210722],[16.61878,49.210718],[16.618778,49.210719],[16.618774,49.210726],[16.618779,49.210728],[16.618775,49.210735],[16.618769,49.210733],[16.618767,49.210736],[16.618784,49.21074],[16.618785,49.210737]]]},"properties":{"id":1280929,"buildingId":1279313,"floorId":1280922,"floorLevel":-1,"name":"BA05P1034","nickname":null,"type":"toilet","category":"service","label":"Toilet","passportNumber":"BA05P1034","seats":null,"hasProjector":false,"hasWhiteboard":false,"code":null}},{"type":"Feature","geometry":{"type":"Polygon","coordinates":[[[16.618711,49.210711],[16.618691,49.210706],[16.618687,49.210712],[16.618683,49.210711],[16.618668,49.210736],[16.618692,49.210742],[16.618711,49.210711]]]},"properties":{"id":1280930,"buildingId":1279313,"floorId":1280922,"floorLevel":-1,"name":"BA05P1056","nickname":null,"type":"toilet","category":"service","label":"Toilet","passportNumber":"BA05P1056","seats":null,"hasProjector":false,"hasWhiteboard":false,"code":null}},{"type":"Feature","geometry":{"type":"Polygon","coordinates":[[[16.61885,49.210734],[16.618798,49.210721],[16.618792,49.210731],[16.618808,49.210735],[16.618805,49.210741],[16.618817,49.210744],[16.61882,49.210738],[16.618844,49.210744],[16.61885,49.210734]]]},"properties":{"id":1280931,"buildingId":1279313,"floorId":1280922,"floorLevel":-1,"name":"BA05P1035","nickname":null,"type":"storage","category":"service","label":"Storage","passportNumber":"BA05P1035","seats":null,"hasProjector":false,"hasWhiteboard":false,"code":null}},{"type":"Feature","geometry":{"type":"Polygon","coordinates":[[[16.618729,49.210723],[16.618708,49.210718],[16.618694,49.210743],[16.618701,49.210744],[16.6187,49.210747],[16.618713,49.21075],[16.618729,49.210723]]]},"properties":{"id":1280932,"buildingId":1279313,"floorId":1280922,"floorLevel":-1,"name":"BA05P1060","nickname":null,"type":"toilet","category":"service","label":"Toilet","passportNumber":"BA05P1060","seats":null,"hasProjector":false,"hasWhiteboard":false,"code":null}},{"type":"Feature","geometry":{"type":"Polygon","coordinates":[[[16.618719,49.210754],[16.618718,49.210754],[16.6187,49.21075],[16.618692,49.210764],[16.618704,49.210767],[16.618706,49.210763],[16.618713,49.210764],[16.618719,49.210754]]]},"properties":{"id":1280933,"buildingId":1279313,"floorId":1280922,"floorLevel":-1,"name":"BA05P1065","nickname":null,"type":"storage","category":"service","label":"Storage","passportNumber":"BA05P1065","seats":null,"hasProjector":false,"hasWhiteboard":false,"code":null}},{"type":"Feature","geometry":{"type":"Polygon","coordinates":[[[16.618721,49.210775],[16.618712,49.210773],[16.618709,49.210771],[16.618709,49.21077],[16.61871,49.210769],[16.618684,49.210763],[16.618678,49.210773],[16.618717,49.210783],[16.618721,49.210775]]]},"properties":{"id":1280935,"buildingId":1279313,"floorId":1280922,"floorLevel":-1,"name":"BA05P1063","nickname":null,"type":"storage","category":"service","label":"Storage","passportNumber":"BA05P1063","seats":null,"hasProjector":false,"hasWhiteboard":false,"code":null}},{"type":"Feature","geometry":{"type":"Polygon","coordinates":[[[16.618825,49.210747],[16.618788,49.210738],[16.618764,49.210777],[16.618801,49.210787],[16.618825,49.210747]]]},"properties":{"id":1280936,"buildingId":1279313,"floorId":1280922,"floorLevel":-1,"name":"BA05P1033","nickname":null,"type":"storage","category":"service","label":"Storage","passportNumber":"BA05P1033","seats":null,"hasProjector":false,"hasWhiteboard":false,"code":null}},{"type":"Feature","geometry":{"type":"Polygon","coordinates":[[[16.618875,49.21076],[16.618865,49.210757],[16.618864,49.210758],[16.618858,49.210756],[16.618842,49.210782],[16.618844,49.210783],[16.618844,49.210783],[16.618855,49.210786],[16.618855,49.210785],[16.618859,49.210786],[16.618875,49.21076]]]},"properties":{"id":1280937,"buildingId":1279313,"floorId":1280922,"floorLevel":-1,"name":"BA05P1004","nickname":null,"type":"storage","category":"service","label":"Storage","passportNumber":"BA05P1004","seats":null,"hasProjector":false,"hasWhiteboard":false,"code":null}},{"type":"Feature","geometry":{"type":"Polygon","coordinates":[[[16.618855,49.210755],[16.618827,49.210748],[16.618803,49.210787],[16.618832,49.210794],[16.618855,49.210755]]]},"properties":{"id":1280938,"buildingId":1279313,"floorId":1280922,"floorLevel":-1,"name":"BA05P1003","nickname":"E231","type":"storage","category":"service","label":"Storage","passportNumber":"BA05P1003","seats":null,"hasProjector":false,"hasWhiteboard":false,"code":null}},{"type":"Feature","geometry":{"type":"Polygon","coordinates":[[[16.618766,49.210784],[16.618758,49.210782],[16.618761,49.210776],[16.618762,49.210777],[16.618783,49.210741],[16.618766,49.210737],[16.618745,49.210772],[16.618748,49.210773],[16.618745,49.210779],[16.61874,49.210777],[16.61874,49.210777],[16.618737,49.210779],[16.618734,49.210779],[16.618724,49.210776],[16.618719,49.210783],[16.618738,49.210788],[16.618736,49.21079],[16.618759,49.210796],[16.618766,49.210784]]]},"properties":{"id":1280939,"buildingId":1279313,"floorId":1280922,"floorLevel":-1,"name":"BA05P1032","nickname":null,"type":"floor","category":"structure","label":"Corridor","passportNumber":"BA05P1032","seats":null,"hasProjector":false,"hasWhiteboard":false,"code":null}},{"type":"Feature","geometry":{"type":"Polygon","coordinates":[[[16.618859,49.210788],[16.618841,49.210783],[16.618834,49.210795],[16.618852,49.2108],[16.618859,49.210788]]]},"properties":{"id":1280940,"buildingId":1279313,"floorId":1280922,"floorLevel":-1,"name":"BA05P1002","nickname":null,"type":"lobby","category":"circulation","label":"Lobby","passportNumber":"BA05P1002","seats":null,"hasProjector":false,"hasWhiteboard":false,"code":null}},{"type":"Feature","geometry":{"type":"Polygon","coordinates":[[[16.61882,49.210811],[16.618822,49.210812],[16.618823,49.21081],[16.618825,49.21081],[16.61883,49.210803],[16.618828,49.210802],[16.618829,49.2108],[16.618768,49.210784],[16.618759,49.210799],[16.618785,49.210806],[16.618787,49.210803],[16.618802,49.210807],[16.618801,49.210808],[16.618819,49.210813],[16.61882,49.210811]]]},"properties":{"id":1280941,"buildingId":1279313,"floorId":1280922,"floorLevel":-1,"name":"BA05P1031","nickname":null,"type":"floor","category":"structure","label":"Corridor","passportNumber":"BA05P1031","seats":null,"hasProjector":false,"hasWhiteboard":false,"code":null}},{"type":"Feature","geometry":{"type":"Polygon","coordinates":[[[16.618711,49.21082],[16.618715,49.210821],[16.618734,49.210789],[16.618691,49.210779],[16.618689,49.210783],[16.618681,49.210781],[16.618683,49.210777],[16.618667,49.210772],[16.618667,49.210772],[16.618675,49.210774],[16.618688,49.210752],[16.618694,49.210753],[16.618698,49.210747],[16.618683,49.210743],[16.618684,49.210741],[16.618673,49.210738],[16.618672,49.21074],[16.618654,49.210735],[16.618646,49.210748],[16.618637,49.210764],[16.618628,49.210779],[16.618618,49.210796],[16.618615,49.2108],[16.618662,49.210812],[16.618664,49.210808],[16.618673,49.21081],[16.61867,49.210814],[16.61868,49.210817],[16.618683,49.210813],[16.618695,49.210816],[16.618693,49.21082],[16.618708,49.210824],[16.618711,49.21082]]]},"properties":{"id":1280942,"buildingId":1279313,"floorId":1280922,"floorLevel":-1,"name":"BA05P1053","nickname":"E91","type":"classroom_and_laboratory","category":"teaching","label":"Classroom / lab","passportNumber":"BA05P1053","seats":null,"hasProjector":false,"hasWhiteboard":false,"code":null}},{"type":"Feature","geometry":{"type":"Polygon","coordinates":[[[16.618997,49.210791],[16.618877,49.210761],[16.618851,49.210804],[16.618889,49.210813],[16.618891,49.210809],[16.618974,49.21083],[16.618997,49.210791]]]},"properties":{"id":1280943,"buildingId":1279313,"floorId":1280922,"floorLevel":-1,"name":"BA05P1005","nickname":null,"type":"wine_shop","category":"other","label":"wine shop","passportNumber":"BA05P1005","seats":null,"hasProjector":false,"hasWhiteboard":false,"code":null}},{"type":"Feature","geometry":{"type":"Polygon","coordinates":[[[16.618804,49.210838],[16.618808,49.210839],[16.618818,49.210822],[16.618814,49.210821],[16.618816,49.210819],[16.618813,49.210818],[16.618815,49.210815],[16.618799,49.210811],[16.618799,49.210812],[16.618751,49.2108],[16.618751,49.210801],[16.618748,49.2108],[16.618749,49.2108],[16.618749,49.2108],[16.618752,49.210795],[16.618736,49.210791],[16.618733,49.210796],[16.618734,49.210796],[16.618733,49.210797],[16.618731,49.210796],[16.618716,49.210821],[16.618718,49.210822],[16.618717,49.210825],[16.61873,49.210828],[16.618731,49.210825],[16.618801,49.210843],[16.618804,49.210838]]]},"properties":{"id":1280944,"buildingId":1279313,"floorId":1280922,"floorLevel":-1,"name":"BA05P1064","nickname":null,"type":"stairs","category":"circulation","label":"Stairs","passportNumber":"BA05P1064","seats":null,"hasProjector":false,"hasWhiteboard":false,"code":null}},{"type":"Feature","geometry":{"type":"Polygon","coordinates":[[[16.618675,49.210826],[16.618679,49.210827],[16.618683,49.21082],[16.618679,49.210819],[16.61868,49.210817],[16.618615,49.210801],[16.618598,49.21083],[16.618662,49.210847],[16.618675,49.210826]]]},"properties":{"id":1280945,"buildingId":1279313,"floorId":1280922,"floorLevel":-1,"name":"BA05P1054","nickname":null,"type":"office","category":"office","label":"Office","passportNumber":"BA05P1054","seats":null,"hasProjector":false,"hasWhiteboard":false,"code":null}},{"type":"Feature","geometry":{"type":"Polygon","coordinates":[[[16.618925,49.210838],[16.618916,49.210836],[16.618915,49.210837],[16.618914,49.210837],[16.618915,49.210836],[16.618898,49.210831],[16.618894,49.210839],[16.618894,49.210841],[16.618897,49.210842],[16.618909,49.210845],[16.618911,49.210842],[16.618912,49.210842],[16.61891,49.210845],[16.618919,49.210848],[16.618925,49.210838]]]},"properties":{"id":1280946,"buildingId":1279313,"floorId":1280922,"floorLevel":-1,"name":"BA05P1009","nickname":null,"type":"toilet","category":"service","label":"Toilet","passportNumber":"BA05P1009","seats":null,"hasProjector":false,"hasWhiteboard":false,"code":null}},{"type":"Feature","geometry":{"type":"Polygon","coordinates":[[[16.618965,49.210845],[16.618967,49.210846],[16.618971,49.210838],[16.61897,49.210838],[16.618971,49.210836],[16.618845,49.210804],[16.618848,49.2108],[16.618835,49.210797],[16.618832,49.210801],[16.618831,49.2108],[16.61883,49.210803],[16.618825,49.21081],[16.618824,49.210812],[16.618897,49.210831],[16.618898,49.21083],[16.618964,49.210847],[16.618965,49.210845]]]},"properties":{"id":1280947,"buildingId":1279313,"floorId":1280922,"floorLevel":-1,"name":"BA05P1001","nickname":null,"type":"floor","category":"structure","label":"Corridor","passportNumber":"BA05P1001","seats":null,"hasProjector":false,"hasWhiteboard":false,"code":null}},{"type":"Feature","geometry":{"type":"Polygon","coordinates":[[[16.618708,49.210825],[16.618686,49.210819],[16.618678,49.210832],[16.618673,49.210831],[16.618669,49.210839],[16.618673,49.210841],[16.618669,49.210848],[16.618691,49.210854],[16.618708,49.210825]]]},"properties":{"id":1280948,"buildingId":1279313,"floorId":1280922,"floorLevel":-1,"name":"BA05P1055","nickname":null,"type":"kitchen","category":"service","label":"Kitchen","passportNumber":"BA05P1055","seats":null,"hasProjector":false,"hasWhiteboard":false,"code":null}},{"type":"Feature","geometry":{"type":"Polygon","coordinates":[[[16.618964,49.210848],[16.618947,49.210844],[16.618947,49.210845],[16.618945,49.210845],[16.618946,49.210844],[16.618926,49.210839],[16.618921,49.210848],[16.61894,49.210853],[16.618942,49.21085],[16.618944,49.21085],[16.618942,49.210853],[16.618958,49.210858],[16.618964,49.210848]]]},"properties":{"id":1280949,"buildingId":1279313,"floorId":1280922,"floorLevel":-1,"name":"BA05P1008","nickname":null,"type":"toilet","category":"service","label":"Toilet","passportNumber":"BA05P1008","seats":null,"hasProjector":false,"hasWhiteboard":false,"code":null}},{"type":"Feature","geometry":{"type":"Polygon","coordinates":[[[16.618999,49.210843],[16.618994,49.210842],[16.618997,49.210836],[16.619003,49.210838],[16.619026,49.210798],[16.619001,49.210792],[16.618962,49.210859],[16.618986,49.210865],[16.618999,49.210843]]]},"properties":{"id":1280950,"buildingId":1279313,"floorId":1280922,"floorLevel":-1,"name":"BA05P1007","nickname":null,"type":"floor","category":"structure","label":"Corridor","passportNumber":"BA05P1007","seats":null,"hasProjector":false,"hasWhiteboard":false,"code":null}},{"type":"Feature","geometry":{"type":"Polygon","coordinates":[[[16.618835,49.210862],[16.618834,49.210861],[16.618836,49.210857],[16.618811,49.210851],[16.618809,49.210855],[16.618807,49.210855],[16.618801,49.210865],[16.618829,49.210872],[16.618835,49.210862]]]},"properties":{"id":1280951,"buildingId":1279313,"floorId":1280922,"floorLevel":-1,"name":"BA05P1037","nickname":null,"type":"elevator","category":"circulation","label":"Elevator","passportNumber":"BA05P1037","seats":null,"hasProjector":false,"hasWhiteboard":false,"code":null}},{"type":"Feature","geometry":{"type":"Polygon","coordinates":[[[16.618862,49.210862],[16.618842,49.210857],[16.618838,49.210862],[16.618835,49.210862],[16.618829,49.210872],[16.618832,49.210872],[16.618831,49.210875],[16.618851,49.21088],[16.618862,49.210862]]]},"properties":{"id":1280952,"buildingId":1279313,"floorId":1280922,"floorLevel":-1,"name":"BA05P1036","nickname":null,"type":"floor","category":"structure","label":"Corridor","passportNumber":"BA05P1036","seats":null,"hasProjector":false,"hasWhiteboard":false,"code":null}},{"type":"Feature","geometry":{"type":"Polygon","coordinates":[[[16.618623,49.210913],[16.618627,49.210914],[16.618634,49.210902],[16.61863,49.210901],[16.618652,49.210864],[16.618658,49.210865],[16.618638,49.210899],[16.618661,49.210904],[16.618686,49.210862],[16.618685,49.210862],[16.61869,49.210854],[16.61867,49.210849],[16.618665,49.210857],[16.618657,49.210855],[16.618662,49.210847],[16.618597,49.210831],[16.618556,49.2109],[16.618621,49.210917],[16.618623,49.210913]]]},"properties":{"id":1280953,"buildingId":1279313,"floorId":1280922,"floorLevel":-1,"name":"BA05P1052","nickname":null,"type":"server_room","category":"other","label":"server room","passportNumber":"BA05P1052","seats":null,"hasProjector":false,"hasWhiteboard":false,"code":null}},{"type":"Feature","geometry":{"type":"Polygon","coordinates":[[[16.618756,49.210874],[16.618753,49.210873],[16.618754,49.210871],[16.618757,49.210872],[16.618767,49.210856],[16.618801,49.210865],[16.618807,49.210855],[16.618796,49.210852],[16.618796,49.210851],[16.618773,49.210845],[16.618776,49.210841],[16.618753,49.210835],[16.618755,49.210832],[16.618742,49.210829],[16.61874,49.210832],[16.618736,49.210831],[16.618735,49.210832],[16.618733,49.210831],[16.618734,49.21083],[16.618713,49.210825],[16.618708,49.210832],[16.618711,49.210833],[16.618707,49.210839],[16.618705,49.210838],[16.618665,49.210906],[16.618728,49.210921],[16.618756,49.210874]]]},"properties":{"id":1280954,"buildingId":1279313,"floorId":1280922,"floorLevel":-1,"name":"BA05P1038","nickname":null,"type":"representative_space","category":"other","label":"representative space","passportNumber":"BA05P1038","seats":null,"hasProjector":false,"hasWhiteboard":false,"code":null}},{"type":"Feature","geometry":{"type":"Polygon","coordinates":[[[16.618732,49.210923],[16.618706,49.210917],[16.6187,49.210927],[16.618726,49.210934],[16.618732,49.210923]]]},"properties":{"id":1280955,"buildingId":1279313,"floorId":1280922,"floorLevel":-1,"name":"BA05P1040","nickname":null,"type":"toilet","category":"service","label":"Toilet","passportNumber":"BA05P1040","seats":null,"hasProjector":false,"hasWhiteboard":false,"code":null}},{"type":"Feature","geometry":{"type":"Polygon","coordinates":[[[16.618704,49.210916],[16.618683,49.210911],[16.618669,49.210934],[16.618691,49.210939],[16.618704,49.210916]]]},"properties":{"id":1280956,"buildingId":1279313,"floorId":1280922,"floorLevel":-1,"name":"BA05P1043","nickname":null,"type":"toilet","category":"service","label":"Toilet","passportNumber":"BA05P1043","seats":null,"hasProjector":false,"hasWhiteboard":false,"code":null}},{"type":"Feature","geometry":{"type":"Polygon","coordinates":[[[16.61868,49.210911],[16.618638,49.2109],[16.618629,49.210914],[16.61863,49.210915],[16.618628,49.210918],[16.618656,49.210925],[16.618649,49.210938],[16.618663,49.210941],[16.61868,49.210911]]]},"properties":{"id":1280957,"buildingId":1279313,"floorId":1280922,"floorLevel":-1,"name":"BA05P1045","nickname":null,"type":"floor","category":"structure","label":"Corridor","passportNumber":"BA05P1045","seats":null,"hasProjector":false,"hasWhiteboard":false,"code":null}},{"type":"Feature","geometry":{"type":"Polygon","coordinates":[[[16.618721,49.210933],[16.6187,49.210928],[16.618693,49.21094],[16.618714,49.210945],[16.618721,49.210933]]]},"properties":{"id":1280958,"buildingId":1279313,"floorId":1280922,"floorLevel":-1,"name":"BA05P1041","nickname":null,"type":"toilet","category":"service","label":"Toilet","passportNumber":"BA05P1041","seats":null,"hasProjector":false,"hasWhiteboard":false,"code":null}},{"type":"Feature","geometry":{"type":"Polygon","coordinates":[[[16.618691,49.21094],[16.618671,49.210935],[16.618666,49.210942],[16.618686,49.210947],[16.618691,49.21094]]]},"properties":{"id":1280959,"buildingId":1279313,"floorId":1280922,"floorLevel":-1,"name":"BA05P1044","nickname":null,"type":"toilet","category":"service","label":"Toilet","passportNumber":"BA05P1044","seats":null,"hasProjector":false,"hasWhiteboard":false,"code":null}},{"type":"Feature","geometry":{"type":"Polygon","coordinates":[[[16.618804,49.210938],[16.618741,49.210922],[16.618733,49.210935],[16.618796,49.210951],[16.618804,49.210938]]]},"properties":{"id":1280960,"buildingId":1279313,"floorId":1280922,"floorLevel":-1,"name":"BA05P1047","nickname":null,"type":"engine_room","category":"service","label":"Engine room","passportNumber":"BA05P1047","seats":null,"hasProjector":false,"hasWhiteboard":false,"code":null}},{"type":"Feature","geometry":{"type":"Polygon","coordinates":[[[16.61871,49.210951],[16.618714,49.210952],[16.618717,49.210947],[16.618694,49.210941],[16.61869,49.210948],[16.618709,49.210953],[16.61871,49.210951]]]},"properties":{"id":1280961,"buildingId":1279313,"floorId":1280922,"floorLevel":-1,"name":"BA05P1042","nickname":null,"type":"toilet","category":"service","label":"Toilet","passportNumber":"BA05P1042","seats":null,"hasProjector":false,"hasWhiteboard":false,"code":null}},{"type":"Feature","geometry":{"type":"Polygon","coordinates":[[[16.618645,49.210932],[16.618644,49.210932],[16.618648,49.210925],[16.618627,49.21092],[16.618623,49.210927],[16.618616,49.210925],[16.61862,49.210918],[16.618555,49.210902],[16.618537,49.210933],[16.618543,49.210935],[16.618542,49.210936],[16.618555,49.210939],[16.618555,49.210938],[16.61863,49.210957],[16.618645,49.210932]]]},"properties":{"id":1280962,"buildingId":1279313,"floorId":1280922,"floorLevel":-1,"name":"BA05P1051","nickname":null,"type":"engine_room","category":"service","label":"Engine room","passportNumber":"BA05P1051","seats":null,"hasProjector":false,"hasWhiteboard":false,"code":null}},{"type":"Feature","geometry":{"type":"Polygon","coordinates":[[[16.618901,49.21093],[16.618883,49.210925],[16.618868,49.210951],[16.618886,49.210955],[16.618901,49.21093]]]},"properties":{"id":1280963,"buildingId":1279313,"floorId":1280922,"floorLevel":-1,"name":"BA05P1039","nickname":null,"type":"floor","category":"structure","label":"Corridor","passportNumber":"BA05P1039","seats":null,"hasProjector":false,"hasWhiteboard":false,"code":null}},{"type":"Feature","geometry":{"type":"Polygon","coordinates":[[[16.61862,49.210972],[16.618621,49.210973],[16.618629,49.21096],[16.618619,49.210957],[16.61862,49.210955],[16.61861,49.210953],[16.618609,49.210955],[16.618607,49.210954],[16.618607,49.210956],[16.618599,49.210954],[16.6186,49.210952],[16.618535,49.210936],[16.618527,49.21095],[16.618591,49.210966],[16.618592,49.210965],[16.6186,49.210967],[16.618598,49.21097],[16.618618,49.210975],[16.61862,49.210972]]]},"properties":{"id":1280964,"buildingId":1279313,"floorId":1280922,"floorLevel":-1,"name":"BA05P1050","nickname":null,"type":"engine_room","category":"service","label":"Engine room","passportNumber":"BA05P1050","seats":null,"hasProjector":false,"hasWhiteboard":false,"code":null}},{"type":"Feature","geometry":{"type":"Polygon","coordinates":[[[16.618691,49.210988],[16.618697,49.21099],[16.618703,49.21098],[16.618697,49.210978],[16.618699,49.210974],[16.618706,49.210975],[16.618716,49.210958],[16.618661,49.210944],[16.618662,49.210942],[16.61865,49.210939],[16.618648,49.210941],[16.618647,49.21094],[16.618644,49.210945],[16.618642,49.210945],[16.618634,49.210958],[16.618636,49.210959],[16.618626,49.210975],[16.618636,49.210978],[16.618635,49.21098],[16.618647,49.210983],[16.618649,49.21098],[16.61869,49.21099],[16.618691,49.210988]]]},"properties":{"id":1280965,"buildingId":1279313,"floorId":1280922,"floorLevel":-1,"name":"BA05P1046","nickname":null,"type":"engine_room","category":"service","label":"Engine room","passportNumber":"BA05P1046","seats":null,"hasProjector":false,"hasWhiteboard":false,"code":null}},{"type":"Feature","geometry":{"type":"Polygon","coordinates":[[[16.618795,49.210953],[16.618732,49.210937],[16.618719,49.210959],[16.618718,49.210958],[16.618708,49.210976],[16.618772,49.210992],[16.618795,49.210953]]]},"properties":{"id":1280966,"buildingId":1279313,"floorId":1280922,"floorLevel":-1,"name":"BA05P1048","nickname":null,"type":"engine_room","category":"service","label":"Engine room","passportNumber":"BA05P1048","seats":null,"hasProjector":false,"hasWhiteboard":false,"code":null}},{"type":"Feature","geometry":{"type":"Polygon","coordinates":[[[16.61877,49.210995],[16.618706,49.210978],[16.618698,49.210992],[16.618762,49.211008],[16.61877,49.210995]]]},"properties":{"id":1280967,"buildingId":1279313,"floorId":1280922,"floorLevel":-1,"name":"BA05P1049","nickname":null,"type":"engine_room","category":"service","label":"Engine room","passportNumber":"BA05P1049","seats":null,"hasProjector":false,"hasWhiteboard":false,"code":null}},{"type":"Feature","geometry":{"type":"Polygon","coordinates":[[[16.618768,49.210776],[16.618768,49.210776],[16.618792,49.210737],[16.618756,49.210728],[16.618731,49.21077],[16.618739,49.210772],[16.618738,49.210773],[16.618766,49.21078],[16.618768,49.210776]]]},"properties":{"id":1281849,"buildingId":1279313,"floorId":1281848,"floorLevel":4,"name":"BA05N4018","nickname":"E73","type":"office","category":"office","label":"Office","passportNumber":"BA05N4018","seats":null,"hasProjector":false,"hasWhiteboard":false,"code":null}},{"type":"Feature","geometry":{"type":"Polygon","coordinates":[[[16.618712,49.210771],[16.618715,49.210772],[16.618715,49.210773],[16.618722,49.210775],[16.618751,49.210727],[16.618669,49.210706],[16.618635,49.210764],[16.618675,49.210774],[16.618674,49.210776],[16.618687,49.210779],[16.618688,49.210777],[16.618705,49.210782],[16.618712,49.210771]]]},"properties":{"id":1281850,"buildingId":1279313,"floorId":1281848,"floorLevel":4,"name":"BA05N4017","nickname":"E74","type":"office","category":"office","label":"Office","passportNumber":"BA05N4017","seats":null,"hasProjector":false,"hasWhiteboard":false,"code":null}},{"type":"Feature","geometry":{"type":"Polygon","coordinates":[[[16.61885,49.210752],[16.618794,49.210738],[16.618771,49.210777],[16.618777,49.210779],[16.618776,49.210781],[16.618786,49.210784],[16.618785,49.210785],[16.618819,49.210793],[16.61882,49.210792],[16.618825,49.210794],[16.61885,49.210752]]]},"properties":{"id":1281851,"buildingId":1279313,"floorId":1281848,"floorLevel":4,"name":"BA05N4019","nickname":null,"type":"boardroom","category":"teaching","label":"Boardroom","passportNumber":"BA05N4019","seats":null,"hasProjector":false,"hasWhiteboard":false,"code":null}},{"type":"Feature","geometry":{"type":"Polygon","coordinates":[[[16.61889,49.210762],[16.618853,49.210752],[16.618828,49.210794],[16.618865,49.210804],[16.61889,49.210762]]]},"properties":{"id":1281852,"buildingId":1279313,"floorId":1281848,"floorLevel":4,"name":"BA05N4020","nickname":"E84","type":"office","category":"office","label":"Office","passportNumber":"BA05N4020","seats":null,"hasProjector":false,"hasWhiteboard":false,"code":null}},{"type":"Feature","geometry":{"type":"Polygon","coordinates":[[[16.618697,49.210797],[16.618693,49.210796],[16.6187,49.210784],[16.618633,49.210767],[16.618618,49.210793],[16.618658,49.210803],[16.618657,49.210805],[16.61867,49.210808],[16.618671,49.210807],[16.618685,49.21081],[16.618685,49.210809],[16.618689,49.21081],[16.618697,49.210797]]]},"properties":{"id":1281853,"buildingId":1279313,"floorId":1281848,"floorLevel":4,"name":"BA05N4016","nickname":"E75","type":"office","category":"office","label":"Office","passportNumber":"BA05N4016","seats":null,"hasProjector":false,"hasWhiteboard":false,"code":null}},{"type":"Feature","geometry":{"type":"Polygon","coordinates":[[[16.618933,49.210773],[16.618892,49.210762],[16.618867,49.210804],[16.618908,49.210815],[16.618933,49.210773]]]},"properties":{"id":1281854,"buildingId":1279313,"floorId":1281848,"floorLevel":4,"name":"BA05N4021","nickname":null,"type":"office","category":"office","label":"Office","passportNumber":"BA05N4021","seats":null,"hasProjector":false,"hasWhiteboard":false,"code":null}},{"type":"Feature","geometry":{"type":"Polygon","coordinates":[[[16.618979,49.210785],[16.618936,49.210774],[16.618911,49.210815],[16.618954,49.210826],[16.618979,49.210785]]]},"properties":{"id":1281855,"buildingId":1279313,"floorId":1281848,"floorLevel":4,"name":"BA05N4022","nickname":null,"type":"office","category":"office","label":"Office","passportNumber":"BA05N4022","seats":null,"hasProjector":false,"hasWhiteboard":false,"code":null}},{"type":"Feature","geometry":{"type":"Polygon","coordinates":[[[16.61868,49.210826],[16.618676,49.210825],[16.618683,49.210812],[16.618616,49.210795],[16.618598,49.210826],[16.618665,49.210843],[16.618666,49.210842],[16.61867,49.210843],[16.61868,49.210826]]]},"properties":{"id":1281856,"buildingId":1279313,"floorId":1281848,"floorLevel":4,"name":"BA05N4015","nickname":"E78","type":"office","category":"office","label":"Office","passportNumber":"BA05N4015","seats":null,"hasProjector":false,"hasWhiteboard":false,"code":null}},{"type":"Feature","geometry":{"type":"Polygon","coordinates":[[[16.619024,49.210796],[16.618982,49.210785],[16.618957,49.210827],[16.618999,49.210838],[16.619024,49.210796]]]},"properties":{"id":1281857,"buildingId":1279313,"floorId":1281848,"floorLevel":4,"name":"BA05N4023","nickname":null,"type":"office","category":"office","label":"Office","passportNumber":"BA05N4023","seats":null,"hasProjector":false,"hasWhiteboard":false,"code":null}},{"type":"Feature","geometry":{"type":"Polygon","coordinates":[[[16.61882,49.210817],[16.618733,49.210795],[16.618731,49.210797],[16.618728,49.210796],[16.618715,49.210818],[16.618719,49.210819],[16.618717,49.210821],[16.618719,49.210822],[16.618717,49.210825],[16.618731,49.210828],[16.618733,49.210825],[16.618804,49.210843],[16.61882,49.210817]]]},"properties":{"id":1281858,"buildingId":1279313,"floorId":1281848,"floorLevel":4,"name":"BA05N4027","nickname":"E88","type":"stairs","category":"circulation","label":"Stairs","passportNumber":"BA05N4027","seats":null,"hasProjector":false,"hasWhiteboard":false,"code":null}},{"type":"Feature","geometry":{"type":"Polygon","coordinates":[[[16.618928,49.210843],[16.618911,49.210839],[16.618908,49.210845],[16.618924,49.210849],[16.618928,49.210843]]]},"properties":{"id":1281859,"buildingId":1279313,"floorId":1281848,"floorLevel":4,"name":"BA05N4025","nickname":"E86","type":"kitchen","category":"service","label":"Kitchen","passportNumber":"BA05N4025","seats":null,"hasProjector":false,"hasWhiteboard":false,"code":null}},{"type":"Feature","geometry":{"type":"Polygon","coordinates":[[[16.618724,49.210848],[16.618704,49.210843],[16.618699,49.210852],[16.618719,49.210857],[16.618724,49.210848]]]},"properties":{"id":1281860,"buildingId":1279313,"floorId":1281848,"floorLevel":4,"name":"BA05N4003","nickname":null,"type":"utility_room","category":"service","label":"Utility","passportNumber":"BA05N4003","seats":null,"hasProjector":false,"hasWhiteboard":false,"code":null}},{"type":"Feature","geometry":{"type":"Polygon","coordinates":[[[16.61881,49.210851],[16.618801,49.210848],[16.618802,49.210847],[16.618715,49.210825],[16.618712,49.21083],[16.618707,49.210829],[16.618701,49.210838],[16.618707,49.210839],[16.618705,49.210843],[16.61877,49.210859],[16.61877,49.210858],[16.618792,49.210864],[16.618793,49.210862],[16.618802,49.210864],[16.61881,49.210851]]]},"properties":{"id":1281861,"buildingId":1279313,"floorId":1281848,"floorLevel":4,"name":"BA05N4002","nickname":null,"type":"floor","category":"structure","label":"Corridor","passportNumber":"BA05N4002","seats":null,"hasProjector":false,"hasWhiteboard":false,"code":null}},{"type":"Feature","geometry":{"type":"Polygon","coordinates":[[[16.618998,49.210842],[16.618979,49.210837],[16.618965,49.210859],[16.618985,49.210864],[16.618998,49.210842]]]},"properties":{"id":1281862,"buildingId":1279313,"floorId":1281848,"floorLevel":4,"name":"BA05N4024","nickname":"E85","type":"toilet","category":"service","label":"Toilet","passportNumber":"BA05N4024","seats":null,"hasProjector":false,"hasWhiteboard":false,"code":null}},{"type":"Feature","geometry":{"type":"Polygon","coordinates":[[[16.618662,49.210857],[16.618658,49.210856],[16.618664,49.210845],[16.618597,49.210828],[16.618579,49.210859],[16.61865,49.210877],[16.618662,49.210857]]]},"properties":{"id":1281863,"buildingId":1279313,"floorId":1281848,"floorLevel":4,"name":"BA05N4014","nickname":"E79","type":"office","category":"office","label":"Office","passportNumber":"BA05N4014","seats":null,"hasProjector":false,"hasWhiteboard":false,"code":null}},{"type":"Feature","geometry":{"type":"Polygon","coordinates":[[[16.61873,49.210872],[16.618715,49.210868],[16.618714,49.21087],[16.618713,49.210869],[16.618715,49.210866],[16.618716,49.210866],[16.618716,49.210868],[16.618731,49.210871],[16.618735,49.210864],[16.61872,49.21086],[16.618719,49.210861],[16.618718,49.210861],[16.618719,49.21086],[16.618698,49.210854],[16.618688,49.21087],[16.618709,49.210876],[16.61871,49.210874],[16.618711,49.210875],[16.618711,49.210876],[16.618726,49.21088],[16.61873,49.210872]]]},"properties":{"id":1281864,"buildingId":1279313,"floorId":1281848,"floorLevel":4,"name":"BA05N4004","nickname":null,"type":"toilet","category":"service","label":"Toilet","passportNumber":"BA05N4004","seats":null,"hasProjector":false,"hasWhiteboard":false,"code":null}},{"type":"Feature","geometry":{"type":"Polygon","coordinates":[[[16.618727,49.210881],[16.618708,49.210876],[16.6187,49.210889],[16.618719,49.210894],[16.618727,49.210881]]]},"properties":{"id":1281865,"buildingId":1279313,"floorId":1281848,"floorLevel":4,"name":"BA05N4005","nickname":null,"type":"toilet","category":"service","label":"Toilet","passportNumber":"BA05N4005","seats":null,"hasProjector":false,"hasWhiteboard":false,"code":null}},{"type":"Feature","geometry":{"type":"Polygon","coordinates":[[[16.618756,49.210883],[16.618754,49.210882],[16.618755,49.210881],[16.618756,49.210882],[16.618762,49.210872],[16.618751,49.210869],[16.618745,49.210879],[16.618747,49.210879],[16.618746,49.21088],[16.618741,49.210879],[16.618742,49.210878],[16.618744,49.210879],[16.61875,49.210868],[16.618738,49.210866],[16.618732,49.210876],[16.618734,49.210876],[16.618734,49.210877],[16.618732,49.210876],[16.618721,49.210895],[16.618745,49.210901],[16.618756,49.210883]]]},"properties":{"id":1281866,"buildingId":1279313,"floorId":1281848,"floorLevel":4,"name":"BA05N4006","nickname":"E76","type":"toilet","category":"service","label":"Toilet","passportNumber":"BA05N4006","seats":null,"hasProjector":false,"hasWhiteboard":false,"code":null}},{"type":"Feature","geometry":{"type":"Polygon","coordinates":[[[16.618622,49.210916],[16.618626,49.210917],[16.618632,49.210907],[16.618628,49.210906],[16.618631,49.2109],[16.618635,49.210901],[16.618648,49.210879],[16.618578,49.210861],[16.618554,49.2109],[16.618621,49.210917],[16.618622,49.210916]]]},"properties":{"id":1281867,"buildingId":1279313,"floorId":1281848,"floorLevel":4,"name":"BA05N4013","nickname":"E79a","type":"office","category":"office","label":"Office","passportNumber":"BA05N4013","seats":null,"hasProjector":false,"hasWhiteboard":false,"code":null}},{"type":"Feature","geometry":{"type":"Polygon","coordinates":[[[16.618604,49.210915],[16.618553,49.210902],[16.61854,49.210924],[16.618591,49.210937],[16.618604,49.210915]]]},"properties":{"id":1281868,"buildingId":1279313,"floorId":1281848,"floorLevel":4,"name":"BA05N4012","nickname":null,"type":"office","category":"office","label":"Office","passportNumber":"BA05N4012","seats":null,"hasProjector":false,"hasWhiteboard":false,"code":null}},{"type":"Feature","geometry":{"type":"Polygon","coordinates":[[[16.618744,49.210903],[16.618687,49.210889],[16.618676,49.210907],[16.618668,49.210905],[16.618662,49.210915],[16.618658,49.210914],[16.618653,49.210923],[16.618657,49.210923],[16.618655,49.210926],[16.618721,49.210942],[16.618744,49.210903]]]},"properties":{"id":1281869,"buildingId":1279313,"floorId":1281848,"floorLevel":4,"name":"BA05N4008","nickname":"E80","type":"office","category":"office","label":"Office","passportNumber":"BA05N4008","seats":null,"hasProjector":false,"hasWhiteboard":false,"code":null}},{"type":"Feature","geometry":{"type":"Polygon","coordinates":[[[16.618636,49.210947],[16.618647,49.210928],[16.618662,49.210902],[16.618672,49.210885],[16.618673,49.210883],[16.618698,49.210889],[16.618706,49.210876],[16.618681,49.210869],[16.618712,49.210817],[16.618714,49.210818],[16.618726,49.210796],[16.618725,49.210795],[16.618729,49.210789],[16.618913,49.210836],[16.618911,49.210839],[16.618928,49.210843],[16.618929,49.21084],[16.618931,49.210841],[16.618926,49.210849],[16.618964,49.210859],[16.618977,49.210837],[16.618863,49.210807],[16.618864,49.210805],[16.618834,49.210797],[16.618832,49.2108],[16.618725,49.210773],[16.618723,49.210776],[16.618712,49.210773],[16.618706,49.210782],[16.618708,49.210782],[16.618625,49.210923],[16.618619,49.210921],[16.61862,49.210919],[16.618605,49.210916],[16.618592,49.210938],[16.618607,49.210941],[16.618608,49.21094],[16.618614,49.210941],[16.618608,49.210951],[16.61863,49.210957],[16.618636,49.210947]]]},"properties":{"id":1281870,"buildingId":1279313,"floorId":1281848,"floorLevel":4,"name":"BA05N4001","nickname":"E72","type":"floor","category":"structure","label":"Corridor","passportNumber":"BA05N4001","seats":null,"hasProjector":false,"hasWhiteboard":false,"code":null}},{"type":"Feature","geometry":{"type":"Polygon","coordinates":[[[16.618606,49.210942],[16.618594,49.210939],[16.618593,49.210941],[16.618538,49.210927],[16.618524,49.21095],[16.618591,49.210967],[16.618606,49.210942]]]},"properties":{"id":1281871,"buildingId":1279313,"floorId":1281848,"floorLevel":4,"name":"BA05N4011","nickname":"E79b","type":"office","category":"office","label":"Office","passportNumber":"BA05N4011","seats":null,"hasProjector":false,"hasWhiteboard":false,"code":null}},{"type":"Feature","geometry":{"type":"Polygon","coordinates":[[[16.618719,49.210945],[16.618654,49.210928],[16.618653,49.21093],[16.618648,49.210928],[16.618636,49.210947],[16.618642,49.210948],[16.618641,49.21095],[16.618706,49.210966],[16.618719,49.210945]]]},"properties":{"id":1281872,"buildingId":1279313,"floorId":1281848,"floorLevel":4,"name":"BA05N4009","nickname":"E80a","type":"office","category":"office","label":"Office","passportNumber":"BA05N4009","seats":null,"hasProjector":false,"hasWhiteboard":false,"code":null}},{"type":"Feature","geometry":{"type":"Polygon","coordinates":[[[16.618705,49.210969],[16.618652,49.210956],[16.618653,49.210954],[16.618641,49.210951],[16.618626,49.210976],[16.618691,49.210993],[16.618705,49.210969]]]},"properties":{"id":1281873,"buildingId":1279313,"floorId":1281848,"floorLevel":4,"name":"BA05N4010","nickname":"E81","type":"office","category":"office","label":"Office","passportNumber":"BA05N4010","seats":null,"hasProjector":false,"hasWhiteboard":false,"code":null}},{"type":"Feature","geometry":{"type":"Polygon","coordinates":[[[16.618898,49.210833],[16.618896,49.210833],[16.618893,49.210837],[16.618893,49.210837],[16.618893,49.210837],[16.618893,49.210838],[16.618893,49.210838],[16.618893,49.210838],[16.618893,49.210838],[16.618893,49.210839],[16.618893,49.210839],[16.618893,49.210839],[16.618893,49.210839],[16.618893,49.21084],[16.618893,49.21084],[16.618893,49.21084],[16.618894,49.21084],[16.618894,49.21084],[16.618894,49.210841],[16.618894,49.210841],[16.618894,49.210841],[16.618895,49.210841],[16.618895,49.210841],[16.618895,49.210841],[16.618895,49.210841],[16.618895,49.210841],[16.618896,49.210842],[16.618896,49.210842],[16.618896,49.210842],[16.618896,49.210842],[16.618897,49.210842],[16.618898,49.210842],[16.618906,49.210844],[16.618906,49.210844],[16.618911,49.210837],[16.61891,49.210837],[16.618901,49.210834],[16.618898,49.210833]]]},"properties":{"id":1281901,"buildingId":1279313,"floorId":1281848,"floorLevel":4,"name":"BA05N4026","nickname":"E87","type":"toilet","category":"service","label":"Toilet","passportNumber":"BA05N4026","seats":null,"hasProjector":false,"hasWhiteboard":false,"code":null}},{"type":"Feature","geometry":{"type":"Polygon","coordinates":[[[16.61883,49.210868],[16.618836,49.210857],[16.61881,49.210851],[16.618802,49.210864],[16.618803,49.210865],[16.618812,49.210867],[16.618812,49.210867],[16.618813,49.210867],[16.618828,49.210871],[16.61883,49.210868]]]},"properties":{"id":1281911,"buildingId":1279313,"floorId":1281848,"floorLevel":4,"name":"BA05N4037","nickname":null,"type":"elevator","category":"circulation","label":"Elevator","passportNumber":"BA05N4037","seats":null,"hasProjector":false,"hasWhiteboard":false,"code":null}},{"type":"Feature","geometry":{"type":"Polygon","coordinates":[[[16.618685,49.210888],[16.618672,49.210885],[16.618662,49.210902],[16.618675,49.210905],[16.618685,49.210888]]]},"properties":{"id":1281917,"buildingId":1279313,"floorId":1281848,"floorLevel":4,"name":"BA05N4007","nickname":"E77","type":"kitchen","category":"service","label":"Kitchen","passportNumber":"BA05N4007","seats":null,"hasProjector":false,"hasWhiteboard":false,"code":null}},{"type":"Feature","geometry":{"type":"Polygon","coordinates":[[[16.618739,49.210772],[16.618744,49.210773],[16.618768,49.210731],[16.618739,49.210724],[16.618714,49.210766],[16.61872,49.210767],[16.618718,49.210771],[16.618737,49.210775],[16.618739,49.210772]]]},"properties":{"id":1282787,"buildingId":1279313,"floorId":1282786,"floorLevel":3,"name":"BA05N3014","nickname":"E24","type":"office","category":"office","label":"Office","passportNumber":"BA05N3014","seats":null,"hasProjector":false,"hasWhiteboard":false,"code":null}},{"type":"Feature","geometry":{"type":"Polygon","coordinates":[[[16.618872,49.210758],[16.618771,49.210732],[16.618746,49.210774],[16.618766,49.210779],[16.618768,49.210777],[16.618777,49.210779],[16.618776,49.210781],[16.618847,49.2108],[16.618872,49.210758]]]},"properties":{"id":1282788,"buildingId":1279313,"floorId":1282786,"floorLevel":3,"name":"BA05N3016","nickname":"E51","type":"classroom_and_laboratory","category":"teaching","label":"Classroom / lab","passportNumber":"BA05N3016","seats":null,"hasProjector":false,"hasWhiteboard":false,"code":null}},{"type":"Feature","geometry":{"type":"Polygon","coordinates":[[[16.618737,49.210723],[16.61867,49.210706],[16.61861,49.210807],[16.618677,49.210824],[16.618737,49.210723]]]},"properties":{"id":1282789,"buildingId":1279313,"floorId":1282786,"floorLevel":3,"name":"BA05N3013","nickname":"E23","type":"classroom_and_laboratory","category":"teaching","label":"Classroom / lab","passportNumber":"BA05N3013","seats":null,"hasProjector":false,"hasWhiteboard":false,"code":null}},{"type":"Feature","geometry":{"type":"Polygon","coordinates":[[[16.619027,49.210797],[16.618873,49.210758],[16.618848,49.2108],[16.61891,49.210815],[16.618909,49.210818],[16.618923,49.210822],[16.618924,49.210819],[16.619002,49.210839],[16.619027,49.210797]]]},"properties":{"id":1282790,"buildingId":1279313,"floorId":1282786,"floorLevel":3,"name":"BA05N3017","nickname":null,"type":"classroom_and_laboratory","category":"teaching","label":"Classroom / lab","passportNumber":"BA05N3017","seats":null,"hasProjector":false,"hasWhiteboard":false,"code":null}},{"type":"Feature","geometry":{"type":"Polygon","coordinates":[[[16.61882,49.210817],[16.618732,49.210795],[16.618732,49.210796],[16.618728,49.210795],[16.618714,49.210819],[16.618717,49.21082],[16.618716,49.210821],[16.618718,49.210822],[16.618717,49.210825],[16.618731,49.210828],[16.618732,49.210825],[16.618804,49.210844],[16.61882,49.210817]]]},"properties":{"id":1282791,"buildingId":1279313,"floorId":1282786,"floorLevel":3,"name":"BA05N3021","nickname":"E66","type":"stairs","category":"circulation","label":"Stairs","passportNumber":"BA05N3021","seats":null,"hasProjector":false,"hasWhiteboard":false,"code":null}},{"type":"Feature","geometry":{"type":"Polygon","coordinates":[[[16.618914,49.210838],[16.618898,49.210834],[16.618895,49.210839],[16.618895,49.210841],[16.618897,49.210842],[16.61891,49.210845],[16.618914,49.210838]]]},"properties":{"id":1282792,"buildingId":1279313,"floorId":1282786,"floorLevel":3,"name":"BA05N3020","nickname":"E64","type":"utility_room","category":"service","label":"Utility","passportNumber":"BA05N3020","seats":null,"hasProjector":false,"hasWhiteboard":false,"code":null}},{"type":"Feature","geometry":{"type":"Polygon","coordinates":[[[16.618676,49.210825],[16.618609,49.210808],[16.618594,49.210834],[16.618661,49.210851],[16.618676,49.210825]]]},"properties":{"id":1282793,"buildingId":1279313,"floorId":1282786,"floorLevel":3,"name":"BA05N3012","nickname":"E55","type":"office","category":"office","label":"Office","passportNumber":"BA05N3012","seats":null,"hasProjector":false,"hasWhiteboard":false,"code":null}},{"type":"Feature","geometry":{"type":"Polygon","coordinates":[[[16.619,49.210843],[16.61899,49.21084],[16.618989,49.210841],[16.618988,49.210841],[16.618989,49.21084],[16.618969,49.210835],[16.618963,49.210846],[16.618982,49.21085],[16.618985,49.210846],[16.618986,49.210846],[16.618983,49.210851],[16.618994,49.210853],[16.619,49.210843]]]},"properties":{"id":1282794,"buildingId":1279313,"floorId":1282786,"floorLevel":3,"name":"BA05N3018","nickname":"E50","type":"toilet","category":"service","label":"Toilet","passportNumber":"BA05N3018","seats":null,"hasProjector":false,"hasWhiteboard":false,"code":null}},{"type":"Feature","geometry":{"type":"Polygon","coordinates":[[[16.618968,49.210835],[16.618889,49.210814],[16.61889,49.210811],[16.618876,49.210808],[16.618875,49.210811],[16.618838,49.210801],[16.618839,49.210798],[16.618825,49.210795],[16.618823,49.210798],[16.618745,49.210778],[16.618737,49.210792],[16.618916,49.210837],[16.618911,49.210846],[16.618955,49.210857],[16.618968,49.210835]]]},"properties":{"id":1282795,"buildingId":1279313,"floorId":1282786,"floorLevel":3,"name":"BA05N3015","nickname":"E52","type":"floor","category":"structure","label":"Corridor","passportNumber":"BA05N3015","seats":null,"hasProjector":false,"hasWhiteboard":false,"code":null}},{"type":"Feature","geometry":{"type":"Polygon","coordinates":[[[16.618724,49.210848],[16.618704,49.210843],[16.618694,49.210859],[16.618714,49.210865],[16.618724,49.210848]]]},"properties":{"id":1282796,"buildingId":1279313,"floorId":1282786,"floorLevel":3,"name":"BA05N3007","nickname":"E61","type":"toilet","category":"service","label":"Toilet","passportNumber":"BA05N3007","seats":null,"hasProjector":false,"hasWhiteboard":false,"code":null}},{"type":"Feature","geometry":{"type":"Polygon","coordinates":[[[16.618808,49.210855],[16.618799,49.210852],[16.618802,49.210847],[16.618714,49.210825],[16.618712,49.210828],[16.618708,49.210827],[16.618702,49.210837],[16.618707,49.210838],[16.618704,49.210842],[16.618792,49.210864],[16.618793,49.210862],[16.618802,49.210865],[16.618808,49.210855]]]},"properties":{"id":1282797,"buildingId":1279313,"floorId":1282786,"floorLevel":3,"name":"BA05N3002","nickname":"E63","type":"floor","category":"structure","label":"Corridor","passportNumber":"BA05N3002","seats":null,"hasProjector":false,"hasWhiteboard":false,"code":null}},{"type":"Feature","geometry":{"type":"Polygon","coordinates":[[[16.618745,49.210854],[16.618726,49.210849],[16.618718,49.210862],[16.618737,49.210867],[16.618745,49.210854]]]},"properties":{"id":1282798,"buildingId":1279313,"floorId":1282786,"floorLevel":3,"name":"BA05N3006","nickname":"E62b","type":"toilet","category":"service","label":"Toilet","passportNumber":"BA05N3006","seats":null,"hasProjector":false,"hasWhiteboard":false,"code":null}},{"type":"Feature","geometry":{"type":"Polygon","coordinates":[[[16.618993,49.210854],[16.618983,49.210852],[16.61898,49.210856],[16.618979,49.210856],[16.618982,49.210851],[16.618962,49.210846],[16.618956,49.210857],[16.618975,49.210862],[16.618976,49.210861],[16.618977,49.210861],[16.618977,49.210862],[16.618987,49.210865],[16.618993,49.210854]]]},"properties":{"id":1282799,"buildingId":1279313,"floorId":1282786,"floorLevel":3,"name":"BA05N3019","nickname":"E65","type":"toilet","category":"service","label":"Toilet","passportNumber":"BA05N3019","seats":null,"hasProjector":false,"hasWhiteboard":false,"code":null}},{"type":"Feature","geometry":{"type":"Polygon","coordinates":[[[16.618758,49.210874],[16.618761,49.210875],[16.618768,49.210863],[16.618765,49.210862],[16.618767,49.210859],[16.618747,49.210854],[16.618739,49.210868],[16.618743,49.210869],[16.618741,49.210872],[16.618757,49.210876],[16.618758,49.210874]]]},"properties":{"id":1282800,"buildingId":1279313,"floorId":1282786,"floorLevel":3,"name":"BA05N3004","nickname":null,"type":"toilet","category":"service","label":"Toilet","passportNumber":"BA05N3004","seats":null,"hasProjector":false,"hasWhiteboard":false,"code":null}},{"type":"Feature","geometry":{"type":"Polygon","coordinates":[[[16.61866,49.21086],[16.618657,49.210859],[16.618661,49.210852],[16.618594,49.210835],[16.618578,49.210861],[16.618649,49.210879],[16.61866,49.21086]]]},"properties":{"id":1282801,"buildingId":1279313,"floorId":1282786,"floorLevel":3,"name":"BA05N3011","nickname":"E22","type":"office","category":"office","label":"Office","passportNumber":"BA05N3011","seats":null,"hasProjector":false,"hasWhiteboard":false,"code":null}},{"type":"Feature","geometry":{"type":"Polygon","coordinates":[[[16.618794,49.210869],[16.618774,49.210864],[16.618762,49.210885],[16.618782,49.21089],[16.618794,49.210869]]]},"properties":{"id":1282802,"buildingId":1279313,"floorId":1282786,"floorLevel":3,"name":"BA05N3003","nickname":null,"type":"balcony","category":"other","label":"balcony","passportNumber":"BA05N3003","seats":null,"hasProjector":false,"hasWhiteboard":false,"code":null}},{"type":"Feature","geometry":{"type":"Polygon","coordinates":[[[16.61872,49.210881],[16.618708,49.210878],[16.618705,49.210883],[16.618704,49.210883],[16.618708,49.210876],[16.618709,49.210877],[16.618709,49.210877],[16.61872,49.21088],[16.618726,49.21087],[16.618715,49.210867],[16.618712,49.210871],[16.618711,49.210871],[16.618714,49.210866],[16.618693,49.210861],[16.618679,49.210884],[16.6187,49.210889],[16.618701,49.210888],[16.618702,49.210888],[16.618701,49.210889],[16.618713,49.210892],[16.61872,49.210881]]]},"properties":{"id":1282803,"buildingId":1279313,"floorId":1282786,"floorLevel":3,"name":"BA05N3008","nickname":"E57","type":"toilet","category":"service","label":"Toilet","passportNumber":"BA05N3008","seats":null,"hasProjector":false,"hasWhiteboard":false,"code":null}},{"type":"Feature","geometry":{"type":"Polygon","coordinates":[[[16.618759,49.210877],[16.618741,49.210873],[16.618738,49.210878],[16.618736,49.210878],[16.618739,49.210873],[16.618727,49.21087],[16.618721,49.210881],[16.618733,49.210884],[16.618733,49.210883],[16.618735,49.210883],[16.618731,49.21089],[16.618729,49.21089],[16.618732,49.210885],[16.61872,49.210882],[16.618714,49.210893],[16.618726,49.210896],[16.618726,49.210895],[16.618728,49.210895],[16.618727,49.210896],[16.618745,49.2109],[16.618759,49.210877]]]},"properties":{"id":1282804,"buildingId":1279313,"floorId":1282786,"floorLevel":3,"name":"BA05N3005","nickname":"E0","type":"toilet","category":"service","label":"Toilet","passportNumber":"BA05N3005","seats":null,"hasProjector":false,"hasWhiteboard":false,"code":null}},{"type":"Feature","geometry":{"type":"Polygon","coordinates":[[[16.618711,49.210819],[16.618713,49.210819],[16.618727,49.210795],[16.618726,49.210794],[16.61873,49.210788],[16.618737,49.21079],[16.618743,49.210779],[16.618736,49.210777],[16.618736,49.210776],[16.618715,49.210771],[16.618693,49.210808],[16.618688,49.210817],[16.618626,49.210922],[16.61862,49.210931],[16.618607,49.210953],[16.618608,49.210953],[16.618629,49.210958],[16.618711,49.210819]]]},"properties":{"id":1282805,"buildingId":1279313,"floorId":1282786,"floorLevel":3,"name":"BA05N3001","nickname":"E49","type":"floor","category":"structure","label":"Corridor","passportNumber":"BA05N3001","seats":null,"hasProjector":false,"hasWhiteboard":false,"code":null}},{"type":"Feature","geometry":{"type":"Polygon","coordinates":[[[16.618603,49.210949],[16.618607,49.21095],[16.618613,49.210941],[16.618609,49.21094],[16.61863,49.210905],[16.618633,49.210905],[16.618649,49.210879],[16.618578,49.210861],[16.618524,49.210953],[16.618591,49.21097],[16.618603,49.210949]]]},"properties":{"id":1282806,"buildingId":1279313,"floorId":1282786,"floorLevel":3,"name":"BA05N3010","nickname":"E21","type":"classroom_and_laboratory","category":"teaching","label":"Classroom / lab","passportNumber":"BA05N3010","seats":null,"hasProjector":false,"hasWhiteboard":false,"code":null}},{"type":"Feature","geometry":{"type":"Polygon","coordinates":[[[16.618744,49.210902],[16.618678,49.210885],[16.618677,49.210888],[16.618674,49.210887],[16.61866,49.21091],[16.618664,49.210911],[16.61865,49.210934],[16.618646,49.210934],[16.618641,49.210942],[16.618644,49.210943],[16.618625,49.210976],[16.61869,49.210993],[16.618744,49.210902]]]},"properties":{"id":1282807,"buildingId":1279313,"floorId":1282786,"floorLevel":3,"name":"BA05N3009","nickname":"E25","type":"classroom_and_laboratory","category":"teaching","label":"Classroom / lab","passportNumber":"BA05N3009","seats":null,"hasProjector":false,"hasWhiteboard":false,"code":null}},{"type":"Feature","geometry":{"type":"Polygon","coordinates":[[[16.618767,49.210731],[16.618738,49.210724],[16.618713,49.210765],[16.618742,49.210773],[16.618767,49.210731]]]},"properties":{"id":1283629,"buildingId":1279313,"floorId":1283628,"floorLevel":2,"name":"BA05N2017","nickname":"E39","type":"storage","category":"service","label":"Storage","passportNumber":"BA05N2017","seats":null,"hasProjector":false,"hasWhiteboard":false,"code":null}},{"type":"Feature","geometry":{"type":"Polygon","coordinates":[[[16.618827,49.210746],[16.618769,49.210732],[16.618744,49.210773],[16.618767,49.210779],[16.618769,49.210777],[16.618778,49.210779],[16.618777,49.210782],[16.618802,49.210788],[16.618827,49.210746]]]},"properties":{"id":1283630,"buildingId":1279313,"floorId":1283628,"floorLevel":2,"name":"BA05N2018","nickname":"E17","type":"classroom_and_laboratory","category":"teaching","label":"Classroom / lab","passportNumber":"BA05N2018","seats":null,"hasProjector":false,"hasWhiteboard":false,"code":null}},{"type":"Feature","geometry":{"type":"Polygon","coordinates":[[[16.618922,49.210771],[16.618872,49.210758],[16.618847,49.210799],[16.618897,49.210812],[16.618922,49.210771]]]},"properties":{"id":1283632,"buildingId":1279313,"floorId":1283628,"floorLevel":2,"name":"BA05N2020","nickname":"E37","type":"office","category":"office","label":"Office","passportNumber":"BA05N2020","seats":null,"hasProjector":false,"hasWhiteboard":false,"code":null}},{"type":"Feature","geometry":{"type":"Polygon","coordinates":[[[16.618736,49.210723],[16.61867,49.210707],[16.618648,49.210743],[16.618649,49.210743],[16.618611,49.210808],[16.618676,49.210825],[16.618736,49.210723]]]},"properties":{"id":1283633,"buildingId":1279313,"floorId":1283628,"floorLevel":2,"name":"BA05N2016","nickname":"E40","type":"classroom_and_laboratory","category":"teaching","label":"Classroom / lab","passportNumber":"BA05N2016","seats":null,"hasProjector":false,"hasWhiteboard":false,"code":null}},{"type":"Feature","geometry":{"type":"Polygon","coordinates":[[[16.618973,49.210784],[16.618923,49.210771],[16.618899,49.210813],[16.618949,49.210825],[16.618973,49.210784]]]},"properties":{"id":1283634,"buildingId":1279313,"floorId":1283628,"floorLevel":2,"name":"BA05N2021","nickname":null,"type":"office","category":"office","label":"Office","passportNumber":"BA05N2021","seats":null,"hasProjector":false,"hasWhiteboard":false,"code":null}},{"type":"Feature","geometry":{"type":"Polygon","coordinates":[[[16.619003,49.210838],[16.619027,49.210797],[16.618975,49.210784],[16.61895,49.210826],[16.619002,49.210839],[16.619003,49.210838]]]},"properties":{"id":1283635,"buildingId":1279313,"floorId":1283628,"floorLevel":2,"name":"BA05N2023","nickname":"E35","type":"office","category":"office","label":"Office","passportNumber":"BA05N2023","seats":null,"hasProjector":false,"hasWhiteboard":false,"code":null}},{"type":"Feature","geometry":{"type":"Polygon","coordinates":[[[16.61882,49.210817],[16.618733,49.210795],[16.618732,49.210796],[16.618728,49.210795],[16.618714,49.210819],[16.618718,49.21082],[16.618717,49.210821],[16.618804,49.210844],[16.61882,49.210817]]]},"properties":{"id":1283636,"buildingId":1279313,"floorId":1283628,"floorLevel":2,"name":"BA05N2027","nickname":null,"type":"stairs","category":"circulation","label":"Stairs","passportNumber":"BA05N2027","seats":null,"hasProjector":false,"hasWhiteboard":false,"code":null}},{"type":"Feature","geometry":{"type":"Polygon","coordinates":[[[16.618914,49.210838],[16.618898,49.210834],[16.618895,49.210839],[16.618895,49.21084],[16.618896,49.210842],[16.618897,49.210842],[16.61891,49.210845],[16.618914,49.210838]]]},"properties":{"id":1283637,"buildingId":1279313,"floorId":1283628,"floorLevel":2,"name":"BA05N2026","nickname":"E15","type":"utility_room","category":"service","label":"Utility","passportNumber":"BA05N2026","seats":null,"hasProjector":false,"hasWhiteboard":false,"code":null}},{"type":"Feature","geometry":{"type":"Polygon","coordinates":[[[16.619,49.210843],[16.61899,49.21084],[16.618989,49.210841],[16.618988,49.210841],[16.618989,49.21084],[16.618969,49.210835],[16.618963,49.210846],[16.618982,49.21085],[16.618985,49.210846],[16.618986,49.210847],[16.618983,49.210851],[16.618994,49.210853],[16.619,49.210843]]]},"properties":{"id":1283638,"buildingId":1279313,"floorId":1283628,"floorLevel":2,"name":"BA05N2024","nickname":"E34","type":"toilet","category":"service","label":"Toilet","passportNumber":"BA05N2024","seats":null,"hasProjector":false,"hasWhiteboard":false,"code":null}},{"type":"Feature","geometry":{"type":"Polygon","coordinates":[[[16.618968,49.210835],[16.618924,49.210823],[16.618911,49.210846],[16.618955,49.210857],[16.618968,49.210835]]]},"properties":{"id":1283639,"buildingId":1279313,"floorId":1283628,"floorLevel":2,"name":"BA05N2022","nickname":"E36","type":"kitchen","category":"service","label":"Kitchen","passportNumber":"BA05N2022","seats":null,"hasProjector":false,"hasWhiteboard":false,"code":null}},{"type":"Feature","geometry":{"type":"Polygon","coordinates":[[[16.618808,49.210855],[16.618799,49.210852],[16.618802,49.210847],[16.618715,49.210825],[16.618705,49.210842],[16.618706,49.210842],[16.618792,49.210864],[16.618793,49.210862],[16.618802,49.210865],[16.618808,49.210855]]]},"properties":{"id":1283640,"buildingId":1279313,"floorId":1283628,"floorLevel":2,"name":"BA05N2002","nickname":"E41","type":"floor","category":"structure","label":"Corridor","passportNumber":"BA05N2002","seats":null,"hasProjector":false,"hasWhiteboard":false,"code":null}},{"type":"Feature","geometry":{"type":"Polygon","coordinates":[[[16.618993,49.210854],[16.618983,49.210852],[16.618981,49.210856],[16.618979,49.210855],[16.618982,49.210851],[16.618962,49.210846],[16.618956,49.210857],[16.618975,49.210862],[16.618976,49.210861],[16.618977,49.210861],[16.618977,49.210862],[16.618987,49.210865],[16.618993,49.210854]]]},"properties":{"id":1283641,"buildingId":1279313,"floorId":1283628,"floorLevel":2,"name":"BA05N2025","nickname":"E33","type":"toilet","category":"service","label":"Toilet","passportNumber":"BA05N2025","seats":null,"hasProjector":false,"hasWhiteboard":false,"code":null}},{"type":"Feature","geometry":{"type":"Polygon","coordinates":[[[16.618705,49.210882],[16.618678,49.210876],[16.618673,49.210883],[16.618675,49.210883],[16.618671,49.210889],[16.618697,49.210895],[16.618705,49.210882]]]},"properties":{"id":1283642,"buildingId":1279313,"floorId":1283628,"floorLevel":2,"name":"BA05N2008","nickname":"E45","type":"kitchen","category":"service","label":"Kitchen","passportNumber":"BA05N2008","seats":null,"hasProjector":false,"hasWhiteboard":false,"code":null}},{"type":"Feature","geometry":{"type":"Polygon","coordinates":[[[16.61866,49.21086],[16.618656,49.210859],[16.618676,49.210825],[16.61861,49.210809],[16.618564,49.210888],[16.618633,49.210905],[16.61866,49.21086]]]},"properties":{"id":1283643,"buildingId":1279313,"floorId":1283628,"floorLevel":2,"name":"BA05N2015","nickname":"E42","type":"classroom_and_laboratory","category":"teaching","label":"Classroom / lab","passportNumber":"BA05N2015","seats":null,"hasProjector":false,"hasWhiteboard":false,"code":null}},{"type":"Feature","geometry":{"type":"Polygon","coordinates":[[[16.618697,49.210896],[16.618672,49.21089],[16.61866,49.210909],[16.618686,49.210916],[16.618697,49.210896]]]},"properties":{"id":1283644,"buildingId":1279313,"floorId":1283628,"floorLevel":2,"name":"BA05N2009","nickname":"E47","type":"toilet","category":"service","label":"Toilet","passportNumber":"BA05N2009","seats":null,"hasProjector":false,"hasWhiteboard":false,"code":null}},{"type":"Feature","geometry":{"type":"Polygon","coordinates":[[[16.61874,49.210906],[16.61873,49.210903],[16.61873,49.210903],[16.61874,49.210905],[16.618745,49.210897],[16.618725,49.210892],[16.61872,49.2109],[16.618721,49.2109],[16.618721,49.210901],[16.618718,49.2109],[16.618718,49.2109],[16.618719,49.2109],[16.618724,49.210892],[16.618704,49.210887],[16.618699,49.210895],[16.618709,49.210897],[16.618709,49.210898],[16.618699,49.210895],[16.618687,49.210916],[16.618728,49.210926],[16.61874,49.210906]]]},"properties":{"id":1283645,"buildingId":1279313,"floorId":1283628,"floorLevel":2,"name":"BA05N2010","nickname":"E998","type":"toilet","category":"service","label":"Toilet","passportNumber":"BA05N2010","seats":null,"hasProjector":false,"hasWhiteboard":false,"code":null}},{"type":"Feature","geometry":{"type":"Polygon","coordinates":[[[16.618615,49.210927],[16.61862,49.21092],[16.618628,49.210905],[16.618563,49.210889],[16.618548,49.210914],[16.618613,49.210931],[16.618615,49.210927]]]},"properties":{"id":1283646,"buildingId":1279313,"floorId":1283628,"floorLevel":2,"name":"BA05N2014","nickname":null,"type":"office","category":"office","label":"Office","passportNumber":"BA05N2014","seats":null,"hasProjector":false,"hasWhiteboard":false,"code":null}},{"type":"Feature","geometry":{"type":"Polygon","coordinates":[[[16.618673,49.210883],[16.618678,49.210876],[16.618711,49.210819],[16.618713,49.210819],[16.618727,49.210795],[16.618726,49.210794],[16.61873,49.210788],[16.618738,49.21079],[16.618736,49.210794],[16.618748,49.210798],[16.618751,49.210793],[16.618765,49.210797],[16.618764,49.210799],[16.618915,49.210837],[16.618923,49.210823],[16.618769,49.210784],[16.618768,49.210785],[16.618736,49.210777],[16.618736,49.210776],[16.618715,49.210771],[16.618626,49.210921],[16.618621,49.210929],[16.618607,49.210953],[16.618629,49.210958],[16.618673,49.210883]]]},"properties":{"id":1283647,"buildingId":1279313,"floorId":1283628,"floorLevel":2,"name":"BA05N2001","nickname":"E32","type":"floor","category":"structure","label":"Corridor","passportNumber":"BA05N2001","seats":null,"hasProjector":false,"hasWhiteboard":false,"code":null}},{"type":"Feature","geometry":{"type":"Polygon","coordinates":[[[16.618727,49.210927],[16.618664,49.210911],[16.618645,49.210943],[16.618708,49.210959],[16.618727,49.210927]]]},"properties":{"id":1283648,"buildingId":1279313,"floorId":1283628,"floorLevel":2,"name":"BA05N2011","nickname":"E16","type":"classroom_and_laboratory","category":"teaching","label":"Classroom / lab","passportNumber":"BA05N2011","seats":null,"hasProjector":false,"hasWhiteboard":false,"code":null}},{"type":"Feature","geometry":{"type":"Polygon","coordinates":[[[16.618613,49.210931],[16.618548,49.210915],[16.618525,49.210953],[16.61859,49.21097],[16.618613,49.210931]]]},"properties":{"id":1283649,"buildingId":1279313,"floorId":1283628,"floorLevel":2,"name":"BA05N2013","nickname":"E46","type":"office","category":"office","label":"Office","passportNumber":"BA05N2013","seats":null,"hasProjector":false,"hasWhiteboard":false,"code":null}},{"type":"Feature","geometry":{"type":"Polygon","coordinates":[[[16.618708,49.21096],[16.618645,49.210944],[16.618626,49.210976],[16.618689,49.210992],[16.618708,49.21096]]]},"properties":{"id":1283651,"buildingId":1279313,"floorId":1283628,"floorLevel":2,"name":"BA05N2012","nickname":null,"type":"office","category":"office","label":"Office","passportNumber":"BA05N2012","seats":null,"hasProjector":false,"hasWhiteboard":false,"code":null}},{"type":"Feature","geometry":{"type":"Polygon","coordinates":[[[16.618732,49.21085],[16.61873,49.21085],[16.618731,49.210849],[16.618719,49.210846],[16.618718,49.210847],[16.618714,49.210846],[16.618705,49.210843],[16.618704,49.210843],[16.618696,49.210857],[16.618724,49.210864],[16.618732,49.21085]]]},"properties":{"id":1283684,"buildingId":1279313,"floorId":1283628,"floorLevel":2,"name":"BA05N2005","nickname":null,"type":"shower","category":"service","label":"Shower","passportNumber":"BA05N2005","seats":null,"hasProjector":false,"hasWhiteboard":false,"code":null}},{"type":"Feature","geometry":{"type":"Polygon","coordinates":[[[16.618734,49.210724],[16.618683,49.210711],[16.61867,49.210733],[16.618678,49.210735],[16.61867,49.210749],[16.618713,49.21076],[16.618734,49.210724]]]},"properties":{"id":1284895,"buildingId":1279313,"floorId":1284894,"floorLevel":1,"name":"BA05N1019","nickname":"E08","type":"office","category":"office","label":"Office","passportNumber":"BA05N1019","seats":null,"hasProjector":false,"hasWhiteboard":false,"code":null}},{"type":"Feature","geometry":{"type":"Polygon","coordinates":[[[16.618713,49.210761],[16.618699,49.210757],[16.618694,49.210765],[16.618708,49.210769],[16.618713,49.210761]]]},"properties":{"id":1284896,"buildingId":1279313,"floorId":1284894,"floorLevel":1,"name":"BA05N1020","nickname":null,"type":"storage","category":"service","label":"Storage","passportNumber":"BA05N1020","seats":null,"hasProjector":false,"hasWhiteboard":false,"code":null}},{"type":"Feature","geometry":{"type":"Polygon","coordinates":[[[16.61874,49.210777],[16.61874,49.210777],[16.618766,49.210732],[16.618736,49.210725],[16.61871,49.21077],[16.61871,49.21077],[16.61871,49.21077],[16.61871,49.21077],[16.61871,49.21077],[16.61871,49.21077],[16.61871,49.210771],[16.61871,49.210771],[16.61871,49.210771],[16.61871,49.210771],[16.61871,49.210771],[16.61871,49.210771],[16.61871,49.210772],[16.61871,49.210772],[16.61871,49.210772],[16.61871,49.210772],[16.61871,49.210772],[16.61871,49.210772],[16.61871,49.210772],[16.618711,49.210773],[16.618711,49.210773],[16.618711,49.210773],[16.618711,49.210773],[16.618711,49.210773],[16.618711,49.210773],[16.618712,49.210773],[16.618712,49.210773],[16.618712,49.210773],[16.618712,49.210773],[16.618712,49.210773],[16.618735,49.210779],[16.618735,49.210779],[16.618735,49.210779],[16.618736,49.210779],[16.618736,49.210779],[16.618736,49.210779],[16.618737,49.210779],[16.618737,49.210779],[16.618737,49.210779],[16.618738,49.210779],[16.618738,49.210779],[16.618738,49.210779],[16.618739,49.210778],[16.618739,49.210778],[16.618739,49.210778],[16.618739,49.210778],[16.61874,49.210778],[16.61874,49.210777]]]},"properties":{"id":1284897,"buildingId":1279313,"floorId":1284894,"floorLevel":1,"name":"BA05N1001","nickname":"E12","type":"stairs","category":"circulation","label":"Stairs","passportNumber":"BA05N1001","seats":null,"hasProjector":false,"hasWhiteboard":false,"code":null}},{"type":"Feature","geometry":{"type":"Polygon","coordinates":[[[16.618691,49.210765],[16.618685,49.210764],[16.61869,49.210755],[16.618659,49.210747],[16.618659,49.210746],[16.618669,49.210748],[16.618676,49.210736],[16.618665,49.210733],[16.618665,49.210732],[16.618669,49.210733],[16.618682,49.210711],[16.61867,49.210708],[16.618626,49.210783],[16.618673,49.210795],[16.618691,49.210765]]]},"properties":{"id":1284898,"buildingId":1279313,"floorId":1284894,"floorLevel":1,"name":"BA05N1018","nickname":null,"type":"office","category":"office","label":"Office","passportNumber":"BA05N1018","seats":null,"hasProjector":false,"hasWhiteboard":false,"code":null}},{"type":"Feature","geometry":{"type":"Polygon","coordinates":[[[16.618871,49.210759],[16.61887,49.210759],[16.61887,49.210757],[16.618845,49.210751],[16.618845,49.210752],[16.618807,49.210743],[16.618808,49.210741],[16.618795,49.210738],[16.618796,49.210736],[16.618784,49.210733],[16.618784,49.210734],[16.618783,49.210733],[16.618782,49.210736],[16.618768,49.210733],[16.618745,49.210772],[16.618767,49.210778],[16.618768,49.210777],[16.618777,49.210779],[16.618776,49.21078],[16.618782,49.210782],[16.61878,49.210786],[16.618793,49.210789],[16.618795,49.210785],[16.618814,49.21079],[16.618814,49.21079],[16.618815,49.21079],[16.618813,49.210794],[16.618826,49.210797],[16.618828,49.210793],[16.618829,49.210793],[16.618829,49.210794],[16.618847,49.210798],[16.618871,49.210759]]]},"properties":{"id":1284899,"buildingId":1279313,"floorId":1284894,"floorLevel":1,"name":"BA05N1004","nickname":"E18","type":"classroom_and_laboratory","category":"teaching","label":"Classroom / lab","passportNumber":"BA05N1004","seats":null,"hasProjector":false,"hasWhiteboard":false,"code":null}},{"type":"Feature","geometry":{"type":"Polygon","coordinates":[[[16.61893,49.210825],[16.61876,49.210782],[16.618753,49.210794],[16.618765,49.210797],[16.618764,49.210799],[16.618922,49.210839],[16.61893,49.210825]]]},"properties":{"id":1284900,"buildingId":1279313,"floorId":1284894,"floorLevel":1,"name":"BA05N1003","nickname":"E03","type":"floor","category":"structure","label":"Corridor","passportNumber":"BA05N1003","seats":null,"hasProjector":false,"hasWhiteboard":false,"code":null}},{"type":"Feature","geometry":{"type":"Polygon","coordinates":[[[16.619026,49.210798],[16.619011,49.210795],[16.619012,49.210793],[16.618987,49.210787],[16.618986,49.210788],[16.618964,49.210783],[16.618965,49.210781],[16.618939,49.210775],[16.618939,49.210776],[16.618917,49.210771],[16.618918,49.210769],[16.618893,49.210763],[16.618892,49.210764],[16.618872,49.210759],[16.618849,49.210799],[16.618868,49.210804],[16.618868,49.210803],[16.618869,49.210804],[16.618867,49.210808],[16.61888,49.210811],[16.618882,49.210807],[16.618883,49.210807],[16.618883,49.210807],[16.618959,49.210827],[16.618959,49.210826],[16.61896,49.210827],[16.618957,49.210831],[16.61897,49.210834],[16.618973,49.21083],[16.618974,49.21083],[16.618973,49.21083],[16.619003,49.210838],[16.619026,49.210798]]]},"properties":{"id":1284901,"buildingId":1279313,"floorId":1284894,"floorLevel":1,"name":"BA05N1005","nickname":"E17","type":"classroom_and_laboratory","category":"teaching","label":"Classroom / lab","passportNumber":"BA05N1005","seats":null,"hasProjector":false,"hasWhiteboard":false,"code":null}},{"type":"Feature","geometry":{"type":"Polygon","coordinates":[[[16.618818,49.210817],[16.618748,49.210799],[16.618733,49.210825],[16.618802,49.210843],[16.618818,49.210817]]]},"properties":{"id":1284902,"buildingId":1279313,"floorId":1284894,"floorLevel":1,"name":"BA05N1008","nickname":null,"type":"stairs","category":"circulation","label":"Stairs","passportNumber":"BA05N1008","seats":null,"hasProjector":false,"hasWhiteboard":false,"code":null}},{"type":"Feature","geometry":{"type":"Polygon","coordinates":[[[16.618674,49.210796],[16.618625,49.210784],[16.618595,49.210834],[16.618644,49.210846],[16.618674,49.210796]]]},"properties":{"id":1284903,"buildingId":1279313,"floorId":1284894,"floorLevel":1,"name":"BA05N1017","nickname":"E09","type":"office","category":"office","label":"Office","passportNumber":"BA05N1017","seats":null,"hasProjector":false,"hasWhiteboard":false,"code":null}},{"type":"Feature","geometry":{"type":"Polygon","coordinates":[[[16.61867,49.210834],[16.618655,49.21083],[16.618646,49.210847],[16.61866,49.21085],[16.61867,49.210834]]]},"properties":{"id":1284904,"buildingId":1279313,"floorId":1284894,"floorLevel":1,"name":"BA05N1016","nickname":null,"type":"utility_room","category":"service","label":"Utility","passportNumber":"BA05N1016","seats":null,"hasProjector":false,"hasWhiteboard":false,"code":null}},{"type":"Feature","geometry":{"type":"Polygon","coordinates":[[[16.618921,49.21084],[16.618897,49.210834],[16.618894,49.210838],[16.618894,49.210841],[16.618896,49.210842],[16.618917,49.210847],[16.618921,49.21084]]]},"properties":{"id":1284905,"buildingId":1279313,"floorId":1284894,"floorLevel":1,"name":"BA05N1007","nickname":null,"type":"toilet","category":"service","label":"Toilet","passportNumber":"BA05N1007","seats":null,"hasProjector":false,"hasWhiteboard":false,"code":null}},{"type":"Feature","geometry":{"type":"Polygon","coordinates":[[[16.618806,49.210855],[16.618796,49.210853],[16.618801,49.210844],[16.618791,49.210841],[16.618789,49.210844],[16.618748,49.210834],[16.618749,49.210831],[16.618741,49.210829],[16.61874,49.210832],[16.618738,49.210831],[16.618737,49.210833],[16.618729,49.210831],[16.618721,49.210845],[16.61879,49.210863],[16.618791,49.210862],[16.618801,49.210864],[16.618806,49.210855]]]},"properties":{"id":1284907,"buildingId":1279313,"floorId":1284894,"floorLevel":1,"name":"BA05N1009","nickname":null,"type":"floor","category":"structure","label":"Corridor","passportNumber":"BA05N1009","seats":null,"hasProjector":false,"hasWhiteboard":false,"code":null}},{"type":"Feature","geometry":{"type":"Polygon","coordinates":[[[16.618633,49.210859],[16.618631,49.210859],[16.618631,49.210858],[16.618633,49.210859],[16.61864,49.210846],[16.618595,49.210835],[16.618581,49.210859],[16.618601,49.210864],[16.618608,49.210852],[16.618611,49.210853],[16.61861,49.210854],[16.618608,49.210853],[16.618603,49.210863],[16.618614,49.210866],[16.61862,49.210856],[16.618618,49.210856],[16.618618,49.210855],[16.618624,49.210856],[16.618623,49.210857],[16.618621,49.210856],[16.618615,49.210866],[16.618627,49.210869],[16.618633,49.210859]]]},"properties":{"id":1284908,"buildingId":1279313,"floorId":1284894,"floorLevel":1,"name":"BA05N1015","nickname":"E10","type":"toilet","category":"service","label":"Toilet","passportNumber":"BA05N1015","seats":null,"hasProjector":false,"hasWhiteboard":false,"code":null}},{"type":"Feature","geometry":{"type":"Polygon","coordinates":[[[16.61873,49.210865],[16.618734,49.210866],[16.618742,49.210852],[16.618722,49.210847],[16.618712,49.210864],[16.618728,49.210869],[16.61873,49.210865]]]},"properties":{"id":1284909,"buildingId":1279313,"floorId":1284894,"floorLevel":1,"name":"BA05N1010","nickname":null,"type":"toilet","category":"service","label":"Toilet","passportNumber":"BA05N1010","seats":null,"hasProjector":false,"hasWhiteboard":false,"code":null}},{"type":"Feature","geometry":{"type":"Polygon","coordinates":[[[16.618977,49.210862],[16.618987,49.210865],[16.618999,49.210843],[16.618998,49.210843],[16.619,49.210839],[16.618984,49.210835],[16.618982,49.210839],[16.618932,49.210826],[16.618917,49.210851],[16.618918,49.210851],[16.618918,49.210851],[16.618941,49.210857],[16.618941,49.210857],[16.618942,49.210857],[16.618944,49.210854],[16.618966,49.21086],[16.618964,49.210863],[16.618965,49.210863],[16.618965,49.210863],[16.618974,49.210865],[16.618974,49.210865],[16.618975,49.210865],[16.618977,49.210862]]]},"properties":{"id":1284910,"buildingId":1279313,"floorId":1284894,"floorLevel":1,"name":"BA05N1006","nickname":null,"type":"kitchen","category":"service","label":"Kitchen","passportNumber":"BA05N1006","seats":null,"hasProjector":false,"hasWhiteboard":false,"code":null}},{"type":"Feature","geometry":{"type":"Polygon","coordinates":[[[16.618646,49.210869],[16.618648,49.21087],[16.61866,49.210851],[16.618642,49.210847],[16.618628,49.21087],[16.618643,49.210874],[16.618646,49.210869]]]},"properties":{"id":1284911,"buildingId":1279313,"floorId":1284894,"floorLevel":1,"name":"BA05N1014","nickname":null,"type":"toilet","category":"service","label":"Toilet","passportNumber":"BA05N1014","seats":null,"hasProjector":false,"hasWhiteboard":false,"code":null}},{"type":"Feature","geometry":{"type":"Polygon","coordinates":[[[16.618834,49.210858],[16.618808,49.210851],[16.618806,49.210855],[16.618801,49.210864],[16.6188,49.210865],[16.618826,49.210872],[16.618834,49.210858]]]},"properties":{"id":1284912,"buildingId":1279313,"floorId":1284894,"floorLevel":1,"name":"BA05N1037","nickname":null,"type":"elevator","category":"circulation","label":"Elevator","passportNumber":"BA05N1037","seats":null,"hasProjector":false,"hasWhiteboard":false,"code":null}},{"type":"Feature","geometry":{"type":"Polygon","coordinates":[[[16.618721,49.210845],[16.618729,49.210831],[16.618733,49.210825],[16.618748,49.210799],[16.618758,49.210782],[16.61874,49.210777],[16.61874,49.210777],[16.61874,49.210778],[16.618739,49.210778],[16.618739,49.210778],[16.618739,49.210778],[16.618739,49.210778],[16.618738,49.210779],[16.618738,49.210779],[16.618738,49.210779],[16.618737,49.210779],[16.618737,49.210779],[16.618737,49.210779],[16.618736,49.210779],[16.618736,49.210779],[16.618736,49.210779],[16.618735,49.210779],[16.618735,49.210779],[16.618735,49.210779],[16.618712,49.210773],[16.618712,49.210773],[16.618712,49.210773],[16.618712,49.210773],[16.618712,49.210773],[16.618711,49.210773],[16.618711,49.210773],[16.618711,49.210773],[16.618711,49.210773],[16.618711,49.210773],[16.618711,49.210773],[16.61871,49.210772],[16.61871,49.210772],[16.61871,49.210772],[16.61871,49.210772],[16.61871,49.210772],[16.61871,49.210772],[16.61871,49.210772],[16.61871,49.210771],[16.61871,49.210771],[16.61871,49.210771],[16.61871,49.210771],[16.61871,49.210771],[16.61871,49.210771],[16.61871,49.21077],[16.61871,49.21077],[16.61871,49.21077],[16.61871,49.21077],[16.61871,49.21077],[16.61871,49.21077],[16.61871,49.21077],[16.618694,49.210766],[16.618687,49.210778],[16.618694,49.210779],[16.618691,49.210784],[16.618684,49.210783],[16.618668,49.210809],[16.618675,49.210811],[16.618672,49.210816],[16.618665,49.210815],[16.618656,49.21083],[16.618673,49.210834],[16.618665,49.210847],[16.61867,49.210848],[16.618665,49.210857],[16.618659,49.210855],[16.618646,49.210877],[16.618695,49.21089],[16.618721,49.210845]]]},"properties":{"id":1284913,"buildingId":1279313,"floorId":1284894,"floorLevel":1,"name":"BA05N1002","nickname":"E04","type":"hall","category":"other","label":"hall","passportNumber":"BA05N1002","seats":null,"hasProjector":false,"hasWhiteboard":false,"code":null}},{"type":"Feature","geometry":{"type":"Polygon","coordinates":[[[16.618748,49.210891],[16.618744,49.21089],[16.618745,49.210889],[16.618749,49.21089],[16.618757,49.210877],[16.618756,49.210876],[16.618756,49.210876],[16.618757,49.210876],[16.618768,49.210859],[16.618744,49.210853],[16.618736,49.210866],[16.618749,49.21087],[16.618747,49.210873],[16.618748,49.210874],[16.618748,49.210874],[16.618711,49.210865],[16.618704,49.210878],[16.61871,49.21088],[16.61871,49.21088],[16.618703,49.210879],[16.618696,49.210891],[16.618714,49.210895],[16.618721,49.210883],[16.61872,49.210883],[16.61872,49.210882],[16.618723,49.210883],[16.618722,49.210884],[16.618724,49.210884],[16.618724,49.210885],[16.618722,49.210885],[16.618715,49.210895],[16.618727,49.210898],[16.618733,49.210887],[16.618731,49.210887],[16.618732,49.210886],[16.618737,49.210887],[16.618737,49.210888],[16.618735,49.210888],[16.618728,49.210899],[16.618742,49.210902],[16.618748,49.210891]]]},"properties":{"id":1284914,"buildingId":1279313,"floorId":1284894,"floorLevel":1,"name":"BA05N1011","nickname":null,"type":"toilet","category":"service","label":"Toilet","passportNumber":"BA05N1011","seats":null,"hasProjector":false,"hasWhiteboard":false,"code":null}},{"type":"Feature","geometry":{"type":"Polygon","coordinates":[[[16.618647,49.210925],[16.618649,49.210926],[16.618673,49.210885],[16.618644,49.210878],[16.618645,49.210876],[16.618638,49.210875],[16.618637,49.210876],[16.618636,49.210876],[16.618637,49.210874],[16.61858,49.21086],[16.618579,49.210861],[16.618577,49.21086],[16.618568,49.210877],[16.61857,49.210877],[16.618564,49.210886],[16.618562,49.210886],[16.618552,49.210902],[16.618555,49.210903],[16.618551,49.21091],[16.618548,49.21091],[16.618529,49.210941],[16.618531,49.210943],[16.618527,49.21095],[16.618591,49.210966],[16.618592,49.210965],[16.618597,49.210966],[16.6186,49.21096],[16.618623,49.210966],[16.618647,49.210925]]]},"properties":{"id":1284916,"buildingId":1279313,"floorId":1284894,"floorLevel":1,"name":"BA05N1013","nickname":null,"type":"classroom_and_laboratory","category":"teaching","label":"Classroom / lab","passportNumber":"BA05N1013","seats":null,"hasProjector":false,"hasWhiteboard":false,"code":null}}]}